id|type|name|placeId|parentId|parentName|lat|lng
05002|municipio|Abejorral|ChIJJyE7HVbpRo4RXp6wxTydi-U|05|Antioquia|5.7897437|-75.4280185
54003|municipio|Ábrego|ChIJwzA8ylOcZ44REOx1T8UA1Yw|54|Norte de Santander|8.076212900000002|-73.22210199999999
05004|municipio|Abriaquí|ChIJ4yC8DQu-RY4R2PEC6XxERVA|05|Antioquia|6.632662499999999|-76.0663467
50006|municipio|Acacías|ChIJ19gFSUs5Po4R3OTBxjhc6e4|50|Meta|3.991663|-73.76612899999999
27006|municipio|Acandí|ChIJO9E4nXEcUY4RxgZlQwKK67U|27|Chocó|8.510109|-77.27897999999999
41006|municipio|Acevedo|ChIJVaCVbNAHJY4RvjYPiDzv3ao|41|Huila|1.805165|-75.88834
13006|municipio|Achí|ChIJZQbW_FE-XI4RaJI4joxjB6w|13|Bolívar|8.567684999999999|-74.5559339
41013|municipio|Agrado|ChIJt7i7IfIoJY4RgsOr8FoN3ZI|41|Huila|2.2590575|-75.77247659999999
25001|municipio|Agua de Dios|ChIJfVyYTGkjP44RjoV92ev_JK0|25|Cundinamarca|4.3765822|-74.6702536
20011|municipio|Aguachica|ChIJW6nC22OFXY4RzBDmeqoowi4|20|Cesar|8.3097459|-73.61448709999999
68013|municipio|Aguada|ChIJy8beqaUBQo4Rcg9s5EtFofI|68|Santander|6.1773561|-73.5240738
17013|municipio|Aguadas|ChIJ004IlzfiRo4ROBxLGok_u7k|17|Caldas|5.608806|-75.45777749999999
85010|municipio|Aguazul|ChIJ7-jZI0EYa44RRFhCNaDAAok|85|Casanare|5.170847|-72.55081899999999
20013|municipio|Agustín Codazzi|ChIJibyb5fAaYI4R-CRu-X1hWUM|20|Cesar|10.034716|-73.237105
41016|municipio|Aipe|ChIJER1HYlCRO44RAhgl_dhInDQ|41|Huila|3.222104|-75.2374504
25019|municipio|Albán|ChIJrVNIWmKdQI4Rrpt9Xv_KGNo|25|Cundinamarca|4.8779859|-74.4382797
52019|municipio|Albán|ChIJ0ZNms3EiL44RmEZhv1piKAA|52|Nariño|1.4728684|-77.067959
18029|municipio|Albania|ChIJD2m8weDPJY4RxGrItTQFr4Q|18|Caquetá|1.3291425|-75.87856339999999
44035|municipio|Albania|ChIJ1ykFNt2Zi44RpYcaM4dV4-Y|44|La Guajira|11.1605126|-72.59162839999999
68020|municipio|Albania|ChIJryJYFoK_QY4RGMNSBTQ4K4o|68|Santander|5.7780002|-73.8066163
76020|municipio|Alcalá|ChIJeQkQBehjOI4RbA_PTJth620|76|Valle del Cauca|4.673496999999999|-75.779167
52022|municipio|Aldana|ChIJl-BMIytoKY4RYLVH9c6lCnk|52|Nariño|0.882544|-77.700425
05021|municipio|Alejandría|ChIJyZ9cwOgPRI4RMsOx1akEm20|05|Antioquia|6.3758292|-75.14173699999999
47030|municipio|Algarrobo|ChIJgy8mcwB5X44RXLpsG0L-rCw|47|Magdalena|10.10004|-74.26662999999999
41020|municipio|Algeciras|ChIJ_Y-knnJIO44RJmOJms_875o|41|Huila|2.523286|-75.3156229
19022|municipio|Almaguer|ChIJabWZYemiL44Rwtiy9yvMGTg|19|Cauca|1.914182|-76.854839
15022|municipio|Almeida|ChIJhw2KRtaoao4RZX22B7Weawg|15|Boyacá|4.970729599999999|-73.3786298
73024|municipio|Alpujarra|ChIJy1f1MoY5Oo4RqiHt_MIRHlg|73|Tolima|3.39306|-75.93553
41026|municipio|Altamira|ChIJKRC6CkEfJY4RvM9GnSwZMic|41|Huila|2.063112|-75.787545
27025|municipio|Alto Baudó|ChIJGa32GJpZSI4Ra3IUI3BtmPo|27|Chocó|5.5156902|-76.9749947
13030|municipio|Altos del Rosario|ChIJ_f6fXFDUXY4R2reWy7LewwQ|13|Bolívar|8.7931714|-74.1608708
73026|municipio|Alvarado|ChIJH9Bj-KZKP44R7k27iIOS2YI|73|Tolima|4.5675132|-74.9529021
05030|municipio|Amagá|ChIJfyur5gWIRo4RcGho6JO1y1Y|05|Antioquia|6.037113000000001|-75.702277
05031|municipio|Amalfi|ChIJqebBstSCRI4REDynBDsb7xk|05|Antioquia|6.895626999999999|-75.0143824
73030|municipio|Ambalema|ChIJxwYSvmxaP44RttQ4JaBo58M|73|Tolima|4.7830998|-74.7634552
25035|municipio|Anapoima|ChIJ2W4zNtAUP44RNgaC-HA5V1Q|25|Cundinamarca|4.548941999999999|-74.535235
52036|municipio|Ancuya|ChIJScjAdX_JLo4RrIYlTucxE7A|52|Nariño|1.2625162|-77.5144637
76036|municipio|Andalucía|ChIJ7QIEhjfJOY4RAvEpvqqPQE8|76|Valle del Cauca|4.168711|-76.16737499999999
05034|municipio|Andes|ChIJxVPuTutRRo4RNjjv7w4fYO4|05|Antioquia|5.656421|-75.879654
05036|municipio|Angelópolis|ChIJFafmLV-HRo4RiLOxeU4p08I|05|Antioquia|6.1113686|-75.709441
05038|municipio|Angostura|ChIJadoq8cmKRI4R1OqJxz_J3Pk|05|Antioquia|6.885648|-75.33582899999999
25040|municipio|Anolaima|ChIJiZkwHVJkP44ROEZFtMeN_bs|25|Cundinamarca|4.761610000000001|-74.4645812
05040|municipio|Anorí|ChIJcbfFp3uaRI4RwttxZNDq38E|05|Antioquia|7.073592499999999|-75.1469662
17042|municipio|Anserma|ChIJEfGi3eGhR44RyiF1ja3IwZ4|17|Caldas|5.242598|-75.781831
76041|municipio|Ansermanuevo|ChIJCZxYAtdzOI4RhijpCh3I_SY|76|Valle del Cauca|4.7945134|-75.99481209999999
1100115|localidad|Antonio Nariño|ChIJzYwoOMmeP44RF7iErav7Jg0|11001|Bogotá|4.5900603|-74.103441
05044|municipio|Anzá|ChIJf65VBtbQRY4R_ion6Vk45MI|05|Antioquia|6.3032315|-75.8538878
73043|municipio|Anzoátegui|ChIJn3OSBMO2OI4RbNbovhSVJIs|73|Tolima|4.632261|-75.09384899999999
05045|municipio|Apartadó|ChIJswW2iXkNUI4R3GPIRMCs-QU|05|Antioquia|7.882760999999999|-76.624692
66045|municipio|Apía|ChIJDT9kklOQR44RGKUM_mExMYw|66|Risaralda|5.106663|-75.940865
25599|municipio|Apulo|ChIJPb-0NH4VP44RSEnUV0H0LIE|25|Cundinamarca|4.521301999999999|-74.593706
15047|municipio|Aquitania|ChIJqzGF1HdXao4RjKlOWhX7gz8|15|Boyacá|5.5181208|-72.88334119999999
47053|municipio|Aracataca|ChIJxbDinMYK9Y4RKAXyAuXr888|47|Magdalena|10.591925|-74.186103
17050|municipio|Aranzazu|ChIJrdbXRVASR44ROIUTAui3fus|17|Caldas|5.271896|-75.490582
68051|municipio|Aratoca|ChIJPda1SJi2aY4REpJknM6Yudg|68|Santander|6.694823899999999|-73.0161205
81001|municipio|Arauca|ChIJWT5xbqLrb44RopF3F--a8zA|81|Arauca|7.076172|-70.71045699999999
81065|municipio|Arauquita|ChIJp0Wb3OESb44RIrHfNxnVOdk|81|Arauca|7.029334|-71.4294759
25053|municipio|Arbeláez|ChIJ22z9wygdP44R4BJn84YcM5s|25|Cundinamarca|4.272793|-74.41601399999999
52051|municipio|Arboleda|ChIJc1uzjgPFLo4RfrJnLk76HdY|52|Nariño|1.3666799|-77.41669999999999
54051|municipio|Arboledas|ChIJc5LUxtbNZ44R_m_5LMUAZ_Y|54|Norte de Santander|7.6431954|-72.7992058
05051|municipio|Arboletes|ChIJdW-6XDMHWo4RJMXtY9YCkPw|05|Antioquia|8.850104|-76.427089
15051|municipio|Arcabuco|ChIJR-pnKMF1ao4RyCAE5KxS-0A|15|Boyacá|5.755044199999999|-73.436719
13042|municipio|Arenal|ChIJOf0mCdS4XY4R_lK73WzN6Vw|13|Bolívar|8.45917|-73.94093
05055|municipio|Argelia|ChIJk2g01pHPRo4REq6hY3B37EQ|05|Antioquia|5.730859|-75.142186
19050|municipio|Argelia|ChIJOSDNRoAtLo4RKZnt-3RdNp0|19|Cauca|2.3611583|-77.2405153
76054|municipio|Argelia|ChIJURycyu8SOI4RbReouzULo28|76|Valle del Cauca|4.727773|-76.12151399999999
47058|municipio|Ariguaní|ChIJwRKLwY0KX44R88NKaxrdSO0|47|Magdalena|9.844197|-74.22811899999999
13052|municipio|Arjona|ChIJnYIW2IufWI4RnksHxqpMyG0|13|Bolívar|10.252471|-75.347308
05059|municipio|Armenia|ChIJV3UU2sN-Ro4RrJxVyvUeadc|05|Antioquia|6.1563272|-75.7876261
63001|municipio|Armenia|ChIJwTtl5q31OI4RCIhduUrKxsI|63|Quindío|4.535000399999999|-75.6756888
73055|municipio|Armero|ChIJx5_GlImrQI4RhoN-rmhA7_k|73|Tolima|4.96462|-74.90489
13062|municipio|Arroyohondo|ChIJRzEpr2SqWI4RDI9EEGoa8jU|13|Bolívar|10.252382|-75.0199392
20032|municipio|Astrea|ChIJIVU1ouZMXo4RkGR50ddJwCA|20|Cesar|9.496125|-73.976122
73067|municipio|Ataco|ChIJB6AltVTeO44RTcVTF4kOOQU|73|Tolima|3.4279895|-75.4810786
27050|municipio|Atrato|ChIJc3zmE6d9SI4RcLYEHYEsEHc|27|Chocó|5.5549057|-76.6181655
23068|municipio|Ayapel|ChIJDYRqWsaEW44RcrdcSfDElY4|23|Córdoba|8.3092849|-75.140264
27073|municipio|Bagadó|ChIJTf5XYIHXR44RXJb2NwRrer4|27|Chocó|5.41139|-76.416372
27075|municipio|Bahía Solano|ChIJK6F9TI0ySY4R3WBK77Zn5A0|27|Chocó|6.222551999999999|-77.40115399999999
27077|municipio|Bajo Baudó|ChIJtZzKUInUSY4Rbq19LxSMvKw|27|Chocó|5.3442678|-77.2864879
19075|municipio|Balboa|ChIJu0J4_D1LLo4RgMAIMwzb93A|19|Cauca|2.0409787|-77.2164114
66075|municipio|Balboa|ChIJnXBmBQiJR44ReDw2sFwDdH4|66|Risaralda|4.9497479|-75.958017
08078|municipio|Baranoa|ChIJlbhObnrX9Y4RmoiXYM24Kr8|08|Atlántico|10.796589|-74.915036
41078|municipio|Baraya|ChIJ50-AJqmIO44R2MncRFG2Qv8|41|Huila|3.151685|-75.054209
52079|municipio|Barbacoas|ChIJm4nxJ3o9LI4RWn92Q3YTYcQ|52|Nariño|1.5635978|-78.0195387
05079|municipio|Barbosa|ChIJiyxGwRoWRI4RGAY7REr_Xu4|05|Antioquia|6.437951699999999|-75.3318156
68077|municipio|Barbosa|ChIJqyBQxLDlQY4RovlEaSTAU5A|68|Santander|5.934362999999999|-73.615679
68079|municipio|Barichara|ChIJAU4B0HvPaY4RXh7fb8bHGJU|68|Santander|6.635848999999999|-73.223409
50110|municipio|Barranca de Upía|ChIJPeYHbzE8FY4R_9W2a_xY9Ro|50|Meta|4.569821399999999|-72.96530369999999
68081|municipio|Barrancabermeja|ChIJraxwr6jsQo4R1hxKbwKsqc8|68|Santander|7.0617085|-73.8519319
44078|municipio|Barrancas|ChIJmXs2L5YGi44R_sKM_dIyVuA|44|La Guajira|10.9556419|-72.795543
13074|municipio|Barranco de Loba|ChIJs9lBf-x7Xo4Rv_58mNUCuBg|13|Bolívar|8.948135|-74.106454
94343|municipio|Barrancominas|ChIJYU4EesG_Do4RACl8x6aGjHI|94|Guainía|3.0595128|-69.8597406
08001|municipio|Barranquilla|ChIJBeYq0UQt9I4Rshe5gUWEMyY|08|Atlántico|11.0041072|-74.80698129999999
1100112|localidad|Barrios Unidos|ChIJ6WFCSP6aP44RIujZPPZisvY|11001|Bogotá|4.674515899999999|-74.0719936
20045|municipio|Becerril|ChIJgbLTTSpwYI4ROlh6cDQWECQ|20|Cesar|9.703454299999999|-73.27827549999999
17088|municipio|Belalcázar|ChIJ386O0AOER44RFHy8VcfMipU|17|Caldas|4.994736899999999|-75.8041093
18094|municipio|Belén de Los Andaquíes|ChIJL9d-CcHIJY4R2DbAvnPEApc|18|Caquetá|1.420043|-75.8724671
66088|municipio|Belén de Umbría|ChIJx_zgf0-YR44RfPsh5QB25E8|66|Risaralda|5.200902999999999|-75.869261
15087|municipio|Belén|ChIJJzq-1W4lao4RCureqn08QkM|15|Boyacá|5.9894|-72.91068899999999
52083|municipio|Belén|ChIJxW5Hr4AaL44RAsZEw2A9S3o|52|Nariño|1.595516|-77.016446
05088|municipio|Bello|ChIJdxeOlaYvRI4R8FDPZqYHfIM|05|Antioquia|6.336728799999999|-75.55958869999999
05086|municipio|Belmira|ChIJW3dIJp5LRI4RxlLBckDBtO4|05|Antioquia|6.6050767|-75.6663784
25086|municipio|Beltrán|ChIJf_XHnylaP44RagGa26IFLWk|25|Cundinamarca|4.800984|-74.740943
15090|municipio|Berbeo|ChIJjzKbT4yUao4RnHueb8mmNk8|15|Boyacá|5.226973999999999|-73.127259
05091|municipio|Betania|ChIJTYO0D8JFRo4RHtdKnxjdvvE|05|Antioquia|5.746649|-75.977569
15092|municipio|Betéitiva|ChIJb9ThrXwxao4R6KjtyErSSoI|15|Boyacá|5.911129|-72.8090726
05093|municipio|Betulia|ChIJj_KoFmRxRo4RAq-l-FDwNMM|05|Antioquia|6.11278|-75.98467
68092|municipio|Betulia|ChIJBTe8QSIuaI4RjA9v_V8VLWg|68|Santander|6.899482|-73.283678
25095|municipio|Bituima|ChIJ6Ty8QNFhP44RxJ-Yv0_6Vos|25|Cundinamarca|4.87282|-74.53981999999999
15097|municipio|Boavita|ChIJkw6OUhdxaY4RYKg3hXSwiKo|15|Boyacá|6.329772999999999|-72.5854162
54099|municipio|Bochalema|ChIJA6nszXEyZo4RHt9tCIGmmYI|54|Norte de Santander|7.611231099999999|-72.6480967
11001|municipio|Bogotá|ChIJKcumLf2bP44RFDmjIFVjnSM|11|Bogotá|4.710988599999999|-74.072092
25099|municipio|Bojacá|ChIJMQC362l6P44R2NA0q_yEOpg|25|Cundinamarca|4.732618|-74.341776
27099|municipio|Bojayá|ChIJbXYxb_Q8T44RR1f8X4__-Io|27|Chocó|6.5213281|-76.9728457
19100|municipio|Bolívar|ChIJOzaE5c6lL44R4M6ILidiFi4|19|Cauca|1.8226816|-76.964306
68101|municipio|Bolívar|ChIJNZU-RvXtQY4RPI_l9y1okcc|68|Santander|5.9864579|-73.7707106
76100|municipio|Bolívar|ChIJAVzNKPczOI4RQtoPF4mik90|76|Valle del Cauca|4.338626|-76.186763
1100107|localidad|Bosa|ChIJ6Sh07G-eP44RAdG49C4lxUY|11001|Bogotá|4.608664399999999|-74.18133639999999
20060|municipio|Bosconia|ChIJi9IU0wqTX44RPkXruZKNwwg|20|Cesar|9.970362|-73.890531
15104|municipio|Boyacá|ChIJX2DZASmHao4RVsL0wxZETI4|15|Boyacá|5.454511|-73.362003
05107|municipio|Briceño|ChIJfbdNrsLlRI4Rttnq8K4Cc0A|05|Antioquia|7.1129229|-75.55109980000002
15106|municipio|Briceño|ChIJD0iIrpK5QY4RqJ0KzHAELIQ|15|Boyacá|5.690024999999999|-73.92287999999999
68001|municipio|Bucaramanga|ChIJ7cBR93oVaI4RbMNIEVXkoHU|68|Santander|7.119349|-73.1227416
54109|municipio|Bucarasica|ChIJA_xXhsWoZ44R9m5OhCN9Gtw|54|Norte de Santander|8.039551|-72.866872
76109|municipio|Buenaventura|ChIJ64bu03AkN44RaisfaQGx46M|76|Valle del Cauca|3.8830471|-77.01972119999999
15109|municipio|Buenavista|ChIJe_sshEIGQY4RVEweB6Q43Ss|15|Boyacá|5.65083|-74.28697
23079|municipio|Buenavista|ChIJDcDbw3inW44RXp7GoNvWYNY|23|Córdoba|8.222953|-75.482981
63111|municipio|Buenavista|ChIJJw68I2tWOI4RioxKdf9VlgE|63|Quindío|4.358388|-75.7396929
70110|municipio|Buenavista|ChIJ-1pbkVEzWY4R-P3Sba2g1rQ|70|Sucre|9.3201564|-74.97393629999999
19110|municipio|Buenos Aires|ChIJjc8qhACIMI4RdpOhEVQh5G0|19|Cauca|3.016105|-76.64250179999999
52110|municipio|Buesaco|ChIJZZkPuRsnL44RBkOJawPvrOU|52|Nariño|1.3846384|-77.1562308
76113|municipio|Bugalagrande|ChIJPW7arOrLOY4RgkoimmoCCnw|76|Valle del Cauca|4.210851000000001|-76.155749
05113|municipio|Buriticá|ChIJO6ka4FOlRY4RAmcoex-xQc4|05|Antioquia|6.7192948|-75.9080161
15114|municipio|Busbanzá|ChIJU9qjiZA3ao4R8M3tCdjZZVQ|15|Boyacá|5.830509|-72.883814
25120|municipio|Cabrera|ChIJ20oc0BPsPo4RFO4xQ8NRXyg|25|Cundinamarca|3.9842364|-74.4842232
68121|municipio|Cabrera|ChIJsebMF-3EaY4R4BJ4DroJwYg|68|Santander|6.5576447|-73.2411506
50124|municipio|Cabuyaro|ChIJ6TwwDeUDFY4RkDVt3xUwObc|50|Meta|4.284528|-72.7923129
94886|área no municipalizada|Cacahual|ChIJ6YN4IMMACo4RoU-9yttLkog|94|Guainía|3.52618|-67.4124933
05120|municipio|Cáceres|ChIJ2zXH9II1W44RxnVBSIOvgm4|05|Antioquia|7.579028999999998|-75.34954499999999
25123|municipio|Cachipay|ChIJyZg85DvqQI4RSi1mxQ76tLI|25|Cundinamarca|5.26674|-74.56672
54128|municipio|Cáchira|ChIJNSUWUazBZ44RsGfnH3R_a2o|54|Norte de Santander|7.7415533|-73.049658
54125|municipio|Cácota|ChIJu8rcK56IaI4RdGRjcFlQFy4|54|Norte de Santander|7.268697|-72.642495
05125|municipio|Caicedo|ChIJlcVdc5jERY4RCqV1nR_nZgg|05|Antioquia|6.405281599999999|-75.9835485
76122|municipio|Caicedonia|ChIJlTX-2edTOI4RTnGM4QCh9O4|76|Valle del Cauca|4.3329129|-75.827107
70124|municipio|Caimito|ChIJQ-MFDnD7W44RNmj_23p5SLI|70|Sucre|8.790668799999999|-75.1171518
73124|municipio|Cajamarca|ChIJ5RPaxs7oOI4R_ju0iiZoBfQ|73|Tolima|4.441792|-75.426844
19130|municipio|Cajibío|ChIJBz38UqAOMI4RuKC5aa-qaEQ|19|Cauca|2.6230834|-76.5698661
25126|municipio|Cajicá|ChIJU8PYEmN3QI4RVDT96tcsizA|25|Cundinamarca|4.9187217|-74.02255699999999
13140|municipio|Calamar|ChIJ83Kl3n9VX44R-CFWApxrrB4|13|Bolívar|10.2482817|-74.915177
95015|municipio|Calamar|ChIJ8_Pr3EWwGY4RAbV_SkP8bBM|95|Guaviare|1.920614|-72.554237
63130|municipio|Calarcá|ChIJ7wClk2j0OI4RWNjKgUP6ziE|63|Quindío|4.5266936|-75.64095739999999
05129|municipio|Caldas|ChIJW2SJ6I6GRo4RBA3_5dbhI9w|05|Antioquia|6.0914795|-75.635271
15131|municipio|Caldas|ChIJG3o-nqK1QY4ROJVUD0-WcXI|15|Boyacá|5.554371|-73.8651958
19137|municipio|Caldono|ChIJpTCqT2p2MI4R4mDOA0xbQ8I|19|Cauca|2.7977575|-76.4834781
76001|municipio|Cali|ChIJ8bNLzPCmMI4RaGGuUum1Dx8|76|Valle del Cauca|3.4516467|-76.5319854
68132|municipio|California|ChIJBQ5MpiBxaI4R7hcsS9awAqA|68|Santander|7.347698699999999|-72.9459601
76126|municipio|Calima|ChIJYeuaIh9DN44Ru9dTpkHqpbY|76|Valle del Cauca|3.919267|-76.5950555
19142|municipio|Caloto|ChIJ558Dt09-Oo4RydGAm0I0wGU|19|Cauca|3.0693454|-76.3868797
05134|municipio|Campamento|ChIJf_6KQPiMRI4R-n7wFOj7bpU|05|Antioquia|6.979498|-75.2966019
08137|municipio|Campo de La Cruz|ChIJH4UvZXD89Y4RYHWFEL0wIkU|08|Atlántico|10.379923|-74.881979
41132|municipio|Campoalegre|ChIJn6t2rR1AO44RhOntqeM1Kpo|41|Huila|2.6851058|-75.3266416
15135|municipio|Campohermoso|ChIJX2rYam-4ao4ROi3M_4KNf2A|15|Boyacá|5.031048|-73.103869
23090|municipio|Canalete|ChIJqTZXwO4aWo4RZkS9b6760B4|23|Córdoba|8.788160999999999|-76.240381
08141|municipio|Candelaria|ChIJGzReL2fj9Y4RMgg0NanGWag|08|Atlántico|10.459676|-74.8809689
76130|municipio|Candelaria|ChIJMxYZwqQOOo4R6ruw8QD8zIE|76|Valle del Cauca|3.4102306|-76.3492869
13160|municipio|Cantagallo|ChIJ_eZaTz7JQo4RYmes4bV4JXI|13|Bolívar|7.381529999999999|-73.91912099999999
05138|municipio|Cañasgordas|ChIJPftoKw6jRY4RDGkx1LDTvog|05|Antioquia|6.7509209|-76.02597879999999
25148|municipio|Caparrapí|ChIJR9k8xE7vQI4ReqUSLvQfdfQ|25|Cundinamarca|5.3456186|-74.49184439999999
68147|municipio|Capitanejo|ChIJiTD5ZR0KaY4RXOSi2A99M4s|68|Santander|6.529626899999999|-72.6969562
25151|municipio|Cáqueza|ChIJ228rlyK6P44RNF0CMAjHRfQ|25|Cundinamarca|4.4056369|-73.946686
05142|municipio|Caracolí|ChIJ8yRxqGruQ44Rokih9CRFdi4|05|Antioquia|6.408748999999999|-74.7576179
05145|municipio|Caramanta|ChIJRy4aIN4BR44RZrwdagPtBhc|05|Antioquia|5.548956|-75.64370699999999
68152|municipio|Carcasí|ChIJB4tXEw0GaY4RHIUcbb9AR_A|68|Santander|6.626642|-72.6267809
05147|municipio|Carepa|ChIJm40R5BEQUI4R1pqasEhSRU8|05|Antioquia|7.755354|-76.6554309
73148|municipio|Carmen de Apicalá|ChIJv8sQosjbPo4RaCwDJnGqras|73|Tolima|4.1496742|-74.7202896
25154|municipio|Carmen de Carupa|ChIJqYagNINIQI4RMKtG-tgtzOo|25|Cundinamarca|5.3488323|-73.9012766
27150|municipio|Carmen del Darién|ChIJn_F-_rq7T44R6g5A5tsKh-c|27|Chocó|7.159894599999999|-76.9695246
05150|municipio|Carolina|ChIJDfN1lUVmRI4RMj4B5-WlTVk|05|Antioquia|6.723754599999999|-75.2811105
13001|municipio|Cartagena de Indias|ChIJUROdrucl9o4RyiY_Ay45YbE|13|Bolívar|10.3932277|-75.4832311
18150|municipio|Cartagena del Chairá|ChIJKzFOUJLwI44RHnTEI_6HoFk|18|Caquetá|1.3338448|-74.84340259999999
76147|municipio|Cartago|ChIJ19-WFh1wOI4ROnFl4BeJWk4|76|Valle del Cauca|4.747221199999999|-75.91162890000001
97161|municipio|Carurú|ChIJf2LWllt7HI4REKEqCOaHLXM|97|Vaupés|1.0126327|-71.2965117
73152|municipio|Casabianca|ChIJi47marpPR44R7O8Q-5_huHg|73|Tolima|5.078568|-75.119717
50150|municipio|Castilla La Nueva|ChIJS8L_l9IQPo4R6qFvRJjg1Hk|50|Meta|3.82848|-73.68875
05154|municipio|Caucasia|ChIJ8dxwwANvW44RdJydlRwQTV0|05|Antioquia|7.983182100000001|-75.1981665
68160|municipio|Cepitá|ChIJGcyvgXKzaY4RBNExJpG0M18|68|Santander|6.753889999999999|-72.97241
23162|municipio|Cereté|ChIJrRfOWyUqWo4RFIbY5jAjFOE|23|Córdoba|8.8889207|-75.7895875
15162|municipio|Cerinza|ChIJU2Tfcig7ao4RuPnrtjHtCqI|15|Boyacá|5.95661|-72.9489509
68162|municipio|Cerrito|ChIJW3P6PkT_aI4RKuLkZueIGKA|68|Santander|6.839005999999999|-72.696951
47161|municipio|Cerro de San Antonio|ChIJEaGnh0z59Y4RRfsXi0dH0h0|47|Magdalena|10.327091|-74.86900179999999
27160|municipio|Cértegui|ChIJ15-NEU1wSI4RTU9SN-_fmSE|27|Chocó|5.371643199999999|-76.6085705
52240|municipio|Chachagüí|ChIJ165r-ojZLo4RCOeyl4RWOv4|52|Nariño|1.359869|-77.28284099999999
25168|municipio|Chaguaní|ChIJ0ZYFN_2hQI4R5BPA8L2FkpY|25|Cundinamarca|4.9493414|-74.5938658
70230|municipio|Chalán|ChIJ6fYR_UsgWY4RqsT5YrCerZs|70|Sucre|9.545048399999999|-75.3122334
85015|municipio|Chámeza|ChIJ_5YzgUHmao4Rjha630FnB-8|85|Casanare|5.2133367|-72.8703836
73168|municipio|Chaparral|ChIJMSPJ4vRkOY4R5ENRJSrODRE|73|Tolima|3.7242458|-75.48275439999999
1100102|localidad|Chapinero|ChIJgwW_iJ6QP44Rc7wFsOAC5M4|11001|Bogotá|4.6548153|-74.0552684
68167|municipio|Charalá|ChIJ6Ti-YGXyaY4RVDq2k4nUozY|68|Santander|6.2859226|-73.1470331
68169|municipio|Charta|ChIJt1HZQSBuaI4RAFzGkCMzI_E|68|Santander|7.280931|-72.96804999999999
25175|municipio|Chía|ChIJial11I2HP44RAlMLmJYQIQQ|25|Cundinamarca|4.8626039|-74.0559882
05172|municipio|Chigorodó|ChIJj9xZDXwbUI4RKiX1RO4KXIE|05|Antioquia|7.6645455|-76.67748449999999
23168|municipio|Chimá|ChIJdcDuKbd2WY4RcP3pckXjXxQ|23|Córdoba|9.149379|-75.62803199999999
68176|municipio|Chima|ChIJt-iPD3_jaY4RmvVgIhrS7KI|68|Santander|6.3419111|-73.37285469999999
20175|municipio|Chimichagua|ChIJCQ1sXDQ_Xo4RgHv6rK05ByE|20|Cesar|9.258032300000002|-73.8142384
54172|municipio|Chinácota|ChIJw1U9COUxZo4RpMn7OWw5CNY|54|Norte de Santander|7.6071073|-72.60163109999999
15172|municipio|Chinavita|ChIJQVwwZwCiao4Rql89q69hhfc|15|Boyacá|5.166615|-73.36877
17174|municipio|Chinchiná|ChIJN9MekyF5R44RbDRBFs_HVEI|17|Caldas|4.9740951|-75.6789905
23182|municipio|Chinú|ChIJncbT2fpoWY4R4OPK5DhhMAs|23|Córdoba|9.105964|-75.401527
25178|municipio|Chipaque|ChIJOVQee8akP44RbLQ59pKPmMo|25|Cundinamarca|4.4430352|-74.04400679999999
68179|municipio|Chipatá|ChIJMfHCuBv6QY4RDD_-xnAUis8|68|Santander|6.061617|-73.637199
15176|municipio|Chiquinquirá|ChIJIWVYgLfJQY4RzmIL08j07eE|15|Boyacá|5.614775|-73.819571
15232|municipio|Chíquiza|ChIJY__cMDjWQY4RUsDmjEG3vU4|15|Boyacá|5.605683|-73.4848681
20178|municipio|Chiriguaná|ChIJ45lWRAkvXo4R1MmF4UZE-z0|20|Cesar|9.361464|-73.5997
15180|municipio|Chiscas|ChIJG2RJi8gRaY4R5teKW9vYjqo|15|Boyacá|6.5527257|-72.4995814
15183|municipio|Chita|ChIJMzfVn3hjaY4RLrS1jIfHWyg|15|Boyacá|6.187449|-72.4732654
54174|municipio|Chitagá|ChIJtyJ3tf2KaI4RdJ5fcDHfHKs|54|Norte de Santander|7.137112999999999|-72.66549499999999
15185|municipio|Chitaraque|ChIJWd485nMHao4RhDbQH1TmMfM|15|Boyacá|6.027467|-73.446429
15187|municipio|Chivatá|ChIJKZRLjrF8ao4R6picrPeEW08|15|Boyacá|5.558452|-73.282611
47170|municipio|Chivolo|ChIJ6WWxV1lCX44RxvwMrbQCmxk|47|Magdalena|10.0274472|-74.6238453
15236|municipio|Chivor|ChIJhbljXICsao4RrICH-BjFaDk|15|Boyacá|4.888109|-73.36692599999999
25181|municipio|Choachí|ChIJjz9Z8RG-P44RLFb_tjYw9Lc|25|Cundinamarca|4.528659|-73.922968
25183|municipio|Chocontá|ChIJHVhiW6QXQI4Riv9Jkh6RqZI|25|Cundinamarca|5.144813999999999|-73.6846668
13188|municipio|Cicuco|ChIJO5fQmnTBXo4RhPWWJmsAs4Y|13|Bolívar|9.2769051|-74.6417537
23189|municipio|Ciénaga de Oro|ChIJ2bZR9tfVW44RWgq-a9eD1b8|23|Córdoba|8.879215|-75.621332
47189|municipio|Ciénaga|ChIJW3wnk9lV9I4Rzky4CjCNPxI|47|Magdalena|11.007984|-74.248926
15189|municipio|Ciénega|ChIJsY0gw-GFao4RDHc0CkJT_k8|15|Boyacá|5.409158|-73.295881
68190|municipio|Cimitarra|ChIJK1lagrokQo4Relrm6_uMx5U|68|Santander|6.315208999999999|-73.9489059
63190|municipio|Circasia|ChIJsdKEYZ2LOI4R8mq6ayKV3TM|63|Quindío|4.616093999999999|-75.635595
05190|municipio|Cisneros|ChIJhR2PITlzRI4R2u59mOM3iFc|05|Antioquia|6.538376|-75.08706699999999
05101|municipio|Ciudad Bolívar|ChIJh8V6IadBRo4RfuLF3_72Cx8|05|Antioquia|5.852475999999999|-76.0218469
1100119|localidad|Ciudad Bolívar|ChIJb2A-s-6hP44RCtQ56Pk_xgo|11001|Bogotá|4.579524|-74.15742890000001
13222|municipio|Clemencia|ChIJc1uzbJMV9o4RTto1CG1gcFw|13|Bolívar|10.568962|-75.3257409
05197|municipio|Cocorná|ChIJzccxthalRo4RvtIFbXdwB-E|05|Antioquia|6.057265|-75.185598
73200|municipio|Coello|ChIJsWmfcLUrP44RPgyiHFEbCnI|73|Tolima|4.286261|-74.897875
25200|municipio|Cogua|ChIJu5ABc1RuQI4RJvGDF8zA9jY|25|Cundinamarca|5.061241|-73.97640799999999
41206|municipio|Colombia|ChIJrR-8QuANPI4RxPCBr3rOaxM|41|Huila|3.3762396|-74.8023651
52203|municipio|Colón|ChIJezbV5s0aL44RMSA3vwbCWk0|52|Nariño|1.6429021|-77.04493269999999
86219|municipio|Colón|ChIJdfloo84yL44R3dKsrAsTJ1g|86|Putumayo|1.2276994|-76.9527836
70204|municipio|Colosó|ChIJmxDcV7AYWY4Rd8lHLfHD4Io|70|Sucre|9.4940613|-75.3530973
15204|municipio|Cómbita|ChIJ-fUTJGB6ao4ReLibyCQB-yY|15|Boyacá|5.634202|-73.323263
05206|municipio|Concepción|ChIJs_HP-C8XRI4ReuoFs9WvPYo|05|Antioquia|6.3946117|-75.2575535
68207|municipio|Concepción|ChIJ02ifQRoAaY4RzGOzPin6ZWE|68|Santander|6.769822|-72.69449399999999
05209|municipio|Concordia|ChIJTQBpi_tvRo4RNKGpYR4o7oQ|05|Antioquia|6.046265200000001|-75.9067158
47205|municipio|Concordia|ChIJKwFznotXX44RwJrcOOrtJc8|47|Magdalena|10.2582596|-74.83279279999999
27205|municipio|Condoto|ChIJhQI3YQMQSI4RIArJ8ZkxpIw|27|Chocó|5.089545999999999|-76.652079
68209|municipio|Confines|ChIJTw54ehrvaY4RXLBjkHZ4JR4|68|Santander|6.356618000000001|-73.241843
52207|municipio|Consacá|ChIJPSmbt5HMLo4RFVbXm9jIeU0|52|Nariño|1.207624|-77.46565799999999
52210|municipio|Contadero|ChIJ86LQeZE_KY4RsMu9vRvgK6A|52|Nariño|0.9088636999999999|-77.5480018
68211|municipio|Contratación|ChIJLwIRSvIHQo4RgKlye8_sU2o|68|Santander|6.290943|-73.4742289
54206|municipio|Convención|ChIJEayuyZ1mZ44R7tM6HCYxDrk|54|Norte de Santander|8.470146|-73.337007
05212|municipio|Copacabana|ChIJL8M3l2slRI4RSs8bNKsMSNw|05|Antioquia|6.357621|-75.505078
15212|municipio|Coper|ChIJKfRZ04hSQI4R6G-2CL6TCEc|15|Boyacá|5.4501027|-74.05351259999999
13212|municipio|Córdoba|ChIJQ65O5cfVXo4R33W7HxMrpqM|13|Bolívar|9.5240607|-74.92087719999999
52215|municipio|Córdoba|ChIJa24l7K8VKY4RmHouVSxNWkY|52|Nariño|0.7908476|-77.4013403
63212|municipio|Córdoba|ChIJdeu9j1z4OI4RELRohZ6Cdhk|63|Quindío|4.392094999999999|-75.687434
19212|municipio|Corinto|ChIJMYoCIftvOo4RyBGFu15Ga7A|19|Cauca|3.1756423|-76.2591932
68217|municipio|Coromoro|ChIJk_bc_X-SaY4RqopAkZnraHY|68|Santander|6.295692499999999|-73.0404384
70215|municipio|Corozal|ChIJWfYpoYc-WY4RGoQRliW9qL4|70|Sucre|9.323419999999999|-75.29490919999999
15215|municipio|Corrales|ChIJY4_XcU42ao4RKN66lkiYf1Y|15|Boyacá|5.828673999999999|-72.844945
25214|municipio|Cota|ChIJ3R9TBOiGP44RSpH9AR2fNTg|25|Cundinamarca|4.8098502|-74.1018383
23300|municipio|Cotorra|ChIJp9IckpyDWY4RomMrYH9NMyM|23|Córdoba|9.039263|-75.790511
15218|municipio|Covarachía|ChIJ53dDxO2gaY4RMEYl63byEPE|15|Boyacá|6.500365|-72.739244
70221|municipio|Coveñas|ChIJ8ywuIxYIWY4RtFbh5CKzDUE|70|Sucre|9.403438999999999|-75.68008669999999
73217|municipio|Coyaima|ChIJV3wbKRlFOY4RIByFkZeq1Pw|73|Tolima|3.7986306|-75.19468379999999
81220|municipio|Cravo Norte|ChIJ3S0SfO_ocY4REPOuTLHE70I|81|Arauca|6.304349999999999|-70.202659
52224|municipio|Cuaspud Carlosama|ChIJx1RzfmtoKY4RND1Sd1krILY|52|Nariño|0.8630625|-77.7281414
15223|municipio|Cubará|ChIJQSwXFM3IaI4Rr_AL-OR5rN4|15|Boyacá|7.00178|-72.108186
50223|municipio|Cubarral|ChIJK3RGCkNmPo4RKJa1iYZUEQg|50|Meta|3.766667|-73.833333
15224|municipio|Cucaita|ChIJ1-oUsHp_ao4RyMabVV4MDTY|15|Boyacá|5.543296|-73.454842
25224|municipio|Cucunubá|ChIJST9m5bk-QI4RDiWAAVvXUD0|25|Cundinamarca|5.250212299999999|-73.76610629999999
54223|municipio|Cucutilla|ChIJEV_AxZbTZ44R-B53BAxqu3A|54|Norte de Santander|7.539222400000001|-72.7726479
15226|municipio|Cuítiva|ChIJNyxuj8Bbao4R2nAx1url0Ow|15|Boyacá|5.5804616|-72.965985
50226|municipio|Cumaral|ChIJvSmXMZTVP44Ro95ib6XPpRA|50|Meta|4.271262|-73.48805200000001
99773|municipio|Cumaribo|ChIJH_ZHXnv2DI4RcCReohjKP-k|99|Vichada|4.4234452|-69.2877535
52227|municipio|Cumbal|ChIJRV5Ulg7hK44RSDEq5pEz5VA|52|Nariño|0.9043808|-77.9510209
52233|municipio|Cumbitara|ChIJhyjrlkSNLo4R7PzV_5AknKc|52|Nariño|1.6479737|-77.57850549999999
73226|municipio|Cunday|ChIJd96tzp7EPo4RbjLXNSEZ-go|73|Tolima|4.060503|-74.69189
18205|municipio|Curillo|ChIJNzmHphlwJo4R2hLbsW2OoJU|18|Caquetá|1.0340079|-75.9214427
68229|municipio|Curití|ChIJ113l7xS4aY4RrCLHHCFknpQ|68|Santander|6.606332|-73.0687493
20228|municipio|Curumaní|ChIJu0u5_ZshXo4RJugFMwOw5HI|20|Cesar|9.201062|-73.5425659
05234|municipio|Dabeiba|ChIJ13TsyZ5wRY4R5DJhNufDv68|05|Antioquia|6.997374|-76.256824
76233|municipio|Dagua|ChIJOzKThNhMN44Reu6hVZr0rRs|76|Valle del Cauca|3.658519|-76.6908459
44090|municipio|Dibulla|ChIJUZ2oOEMyi44RXlgSPAdydio|44|La Guajira|11.101302|-73.4180211
44098|municipio|Distracción|ChIJp0yenScDi44Rcok9A-I8nOA|44|La Guajira|10.8969801|-72.8865193
73236|municipio|Dolores|ChIJWT3C3mmmPo4RisJ2BEuDycs|73|Tolima|3.67109|-74.74951999999999
05237|municipio|Donmatías|ChIJPQDs9vs-RI4R6DAZj2zcYk4|05|Antioquia|6.485702|-75.39383099999999
66170|municipio|Dosquebradas|ChIJhyRrTd-AOI4ReAs5SWb4f5s|66|Risaralda|4.8318256|-75.68056779999999
15238|municipio|Duitama|ChIJc2EvoQw_ao4Rbt730lU6BGo|15|Boyacá|5.8268951|-73.0329273
54239|municipio|Durania|ChIJd4J4hFk0Zo4R6LOjzxbW15A|54|Norte de Santander|7.714685|-72.6562189
05240|municipio|Ebéjico|ChIJcdlxhaXTRY4RoA1IgOCzEjw|05|Antioquia|6.326906|-75.76734499999999
76243|municipio|El Águila|ChIJVQ1VWn51OI4RVM8jMade9Ig|76|Valle del Cauca|4.9083995|-76.0417277
05250|municipio|El Bagre|ChIJRbz6hdytXI4RbsZWMBpcY2E|05|Antioquia|7.6049669|-74.8090098
47245|municipio|El Banco|ChIJ_R0l-9NxXo4RpQKP8mwhcwc|47|Magdalena|9.003506999999999|-73.97386399999999
76246|municipio|El Cairo|ChIJobeSlS0OOI4RRnwYsgGj8w8|76|Valle del Cauca|4.760770400000001|-76.2216962
50245|municipio|El Calvario|ChIJgcFDPRDPP44ReDqTRbtBqcs|50|Meta|4.352332|-73.712966
27135|municipio|El Cantón del San Pablo|ChIJKb_28qxuSI4RWP0AXBj2_UM|27|Chocó|5.33893|-76.73137
27245|municipio|El Carmen de Atrato|ChIJkZbgDjEiRo4RimSvF29amW8|27|Chocó|5.8998577|-76.14223179999999
13244|municipio|El Carmen de Bolívar|ChIJv3UKQEXQWI4RSmDrD9d7VI0|13|Bolívar|9.7180213|-75.1209887
68235|municipio|El Carmen de Chucurí|ChIJ24fmM-B4Qo4RMDtzEDQBVmY|68|Santander|6.6982412|-73.51117339999999
05148|municipio|El Carmen de Viboral|ChIJ70GwWHmiRo4R5LyUaFsJVrQ|05|Antioquia|6.087915|-75.337488
54245|municipio|El Carmen|ChIJM3cMXOtfZ44RLFrJa4mh8to|54|Norte de Santander|8.49567|-73.44704
50251|municipio|El Castillo|ChIJSf0N1FLgPY4RbE5SRDijCjg|50|Meta|3.5651277|-73.7957024
76248|municipio|El Cerrito|ChIJMdAfJqn5OY4RWgrl_Z2cjZU|76|Valle del Cauca|3.684084|-76.312996
52250|municipio|El Charco|ChIJCfr6ENgELo4RcN6D7A2i7Os|52|Nariño|2.1364332|-77.973865
15244|municipio|El Cocuy|ChIJxbNdLJJsaY4RIkMSpYtKnnE|15|Boyacá|6.408891|-72.4454499
25245|municipio|El Colegio|ChIJr8NlrxltP44RCAl-BFqdskI|25|Cundinamarca|4.584194999999999|-74.445236
20238|municipio|El Copey|ChIJJ3XruD-JX44RzHu_TdN7mKk|20|Cesar|10.148976|-73.960233
18247|municipio|El Doncello|ChIJWYqkrNtmJI4RWLarfwW0_cM|18|Caquetá|1.680042|-75.2833349
50270|municipio|El Dorado|ChIJC6yZFh2lF44RRrPnThckKzY|50|Meta|2.7792|-72.87196999999999
76250|municipio|El Dovio|ChIJG9BJQWM7OI4R9BhGOyTJ7vg|76|Valle del Cauca|4.5081065|-76.2371857
91263|área no municipalizada|El Encanto|ChIJh88AeS9x55ER5Tyxga5BNn4|91|Amazonas|-1.7471448|-73.20910099999999
15248|municipio|El Espino|ChIJ7akSTGcSaY4R0y4NbhqcGF4|15|Boyacá|6.4864|-72.43285999999999
68245|municipio|El Guacamayo|ChIJ59zKTTwHQo4RbPwK9CgVSh4|68|Santander|6.245051|-73.49765099999999
13248|municipio|El Guamo|ChIJFwhSJDGzWI4R3IDxEHrI_kg|13|Bolívar|10.031243|-74.97610999999999
27250|municipio|El Litoral del San Juan|ChIJo5W-jBUIN44RLDwakvSKgEU|27|Chocó|4.2006777|-76.7336521
44110|municipio|El Molino|ChIJB9Um4rjvio4Rnr88gNyqr8g|44|La Guajira|10.6524332|-72.92118789999999
20250|municipio|El Paso|ChIJCWcdqbnaX44RMBPuKdx6N_Q|20|Cesar|9.661436|-73.74643000000002
18256|municipio|El Paujíl|ChIJL0C2TsRpJI4RZfGV7jQkDzs|18|Caquetá|1.5710821|-75.3268349
52254|municipio|El Peñol|ChIJ9QTLwk7CLo4R3jROMxrme40|52|Nariño|1.453475|-77.4404636
13268|municipio|El Peñón|ChIJgac8au1xXo4RklpXmqKnoS8|13|Bolívar|8.9897013|-73.95010380000001
25258|municipio|El Peñón|ChIJT1_OjWn0QI4RwIR6zE21L78|25|Cundinamarca|5.248622999999999|-74.29033
68250|municipio|El Peñón|ChIJt9S4o2vzQY4Rwemuf0lS8DA|68|Santander|6.054717399999999|-73.81591089999999
47258|municipio|El Piñón|ChIJFQsSAOP69Y4Rv9Zmy0kYqrw|47|Magdalena|10.404038|-74.823769
68255|municipio|El Playón|ChIJE-hwa_7gZ44RVlf1FEpYS1Q|68|Santander|7.4706343|-73.2030848
47268|municipio|El Retén|ChIJe719i-aj9Y4RlizCfyK6ALg|47|Magdalena|10.6477434|-74.3352858
95025|municipio|El Retorno|ChIJhV_3d-jVGY4RTnqfLfQaVaQ|95|Guaviare|2.331899|-72.62812699999999
70233|municipio|El Roble|ChIJQ3N91QBFWY4RkIYfER0t9CU|70|Sucre|9.1059302|-75.1951424
25260|municipio|El Rosal|ChIJQ0WyXMp_P44R4kzKhX1mpBo|25|Cundinamarca|4.852250000000001|-74.26482399999999
52256|municipio|El Rosario|ChIJqfr7pan5Lo4RYnyKaPz2BCE|52|Nariño|1.742897|-77.33513239999999
05697|municipio|El Santuario|ChIJcWz-1D6hRo4REOWxqzSpnqQ|05|Antioquia|6.1392039|-75.26367479999999
52258|municipio|El Tablón de Gómez|ChIJqZWacN4jL44RppfwROOBXHo|52|Nariño|1.427619|-77.097224
19256|municipio|El Tambo|ChIJew2ptkAfMI4ROlQ6JMbpWaA|19|Cauca|2.452695|-76.81132199999999
52260|municipio|El Tambo|ChIJDfQ7k1jDLo4REj2vKHkTLQc|52|Nariño|1.4081109|-77.391527
54250|municipio|El Tarra|ChIJjYkTY2NHZ44RnMDUXlnXCIg|54|Norte de Santander|8.57451|-73.09339
54261|municipio|El Zulia|ChIJBxPoFv1RZo4R7pQH2XIHC74|54|Norte de Santander|7.937289|-72.604826
41244|municipio|Elías|ChIJV5JFDuAWJY4R0jL6_PT048c|41|Huila|2.0137131|-75.9379356
68264|municipio|Encino|ChIJfSLYQVf1aY4RQh4AFXtoVTQ|68|Santander|6.13694|-73.09831
68266|municipio|Enciso|ChIJbZrycGYHaY4RYrQA1_1hxts|68|Santander|6.66756|-72.70000999999999
1100110|localidad|Engativá|ChIJhTa7MamcP44R9A_fFp_Ee3c|11001|Bogotá|4.707259800000001|-74.10946349999999
05264|municipio|Entrerríos|ChIJAdyypNpHRI4RxP5AUXsc6ZA|05|Antioquia|6.566146|-75.516908
05266|municipio|Envigado|ChIJYa6GO0mCRo4RtAqEiD4bOg4|05|Antioquia|6.167286499999999|-75.5836963
73268|municipio|Espinal|ChIJUfjUTeXTPo4RZiUCbzq1bhs|73|Tolima|4.147075|-74.89749250000001
25269|municipio|Facatativá|ChIJ1zaUsl98P44RnHUgrz3XLO4|25|Cundinamarca|4.809984|-74.35400899999999
73270|municipio|Falan|ChIJs71-BluzQI4Rx4fTBeypQcg|73|Tolima|5.1206208|-74.95246910000002
17272|municipio|Filadelfia|ChIJ_yddvtoNR44Rglu9b5PLYPY|17|Caldas|5.2977|-75.56234490000001
63272|municipio|Filandia|ChIJ76RAwXGJOI4RmJSu4vSCn9c|63|Quindío|4.6746953|-75.6577028
15272|municipio|Firavitoba|ChIJlc4gh51Eao4RaKDv1rDxjMU|15|Boyacá|5.668899|-72.994095
73275|municipio|Flandes|ChIJqe50sPAoP44RUM6rIMmSDZI|73|Tolima|4.2867309|-74.812294
18001|municipio|Florencia|ChIJLxS6cRpOJI4RRNR2E9LDjUA|18|Caquetá|1.6153858|-75.60423639999999
19290|municipio|Florencia|ChIJOU37lUQEL44Rgu10TfSvrWg|19|Cauca|1.6828778|-77.0726402
15276|municipio|Floresta|ChIJ_wEuBcE5ao4RABIbnq18Hpg|15|Boyacá|5.858962099999999|-72.9195912
68271|municipio|Florián|ChIJrSPZ-K-9QY4Rir_YRxLe350|68|Santander|5.803248|-73.970703
76275|municipio|Florida|ChIJF2vyZNISOo4R-kgyylcE-x0|76|Valle del Cauca|3.3231646|-76.2326981
68276|municipio|Floridablanca|ChIJmQZu2WE_aI4R8AdMdLypfCQ|68|Santander|7.072056799999999|-73.1068227
25279|municipio|Fómeque|ChIJvyLl0-a-P44RkHySR-wH_f4|25|Cundinamarca|4.4852146|-73.89376109999999
44279|municipio|Fonseca|ChIJmd92AlYCi44RyLaAi9oo9Vc|44|La Guajira|10.886123|-72.85151499999999
1100109|localidad|Fontibón|ChIJHaPSpV-cP44RRgySMYfH-aU|11001|Bogotá|4.6739145|-74.1433169
81300|municipio|Fortul|ChIJEVHgn48ob44RPHW0rctDbBA|81|Arauca|6.794366999999999|-71.7715489
25281|municipio|Fosca|ChIJmUuy9iyxP44RDPC9M40JmP0|25|Cundinamarca|4.338952|-73.938919
52520|municipio|Francisco Pizarro|ChIJKzTnYbyhLY4RwKHdToHzlv0|52|Nariño|2.0643306|-78.6114999
05282|municipio|Fredonia|ChIJVcBRi1OKRo4RrsYopWYw4Q0|05|Antioquia|5.927167000000001|-75.6721998
73283|municipio|Fresno|ChIJT0yf6L9LR44RBlIhO6hzf7Y|73|Tolima|5.1520138|-75.036312
05284|municipio|Frontino|ChIJ49DIff2YRY4RknVlCDlCtaQ|05|Antioquia|6.772999899999999|-76.1313454
50287|municipio|Fuente de Oro|ChIJFTRLK-76PY4RPqChKybeVt4|50|Meta|3.4605363|-73.6194148
47288|municipio|Fundación|ChIJ49LWrG9p9Y4RKsn5WJ7oMaU|47|Magdalena|10.4492789|-73.86542949999999
52287|municipio|Funes|ChIJf087t0o6KY4RuIspZB0-HhU|52|Nariño|1.0002629|-77.4491646
25286|municipio|Funza|ChIJ1VCmNamCP44RlLB7MOLPy3s|25|Cundinamarca|4.7176677|-74.2118741
25288|municipio|Fúquene|ChIJhcSRN2A2QI4RoIgDMJVi-q8|25|Cundinamarca|5.403941199999999|-73.795852
25290|municipio|Fusagasugá|ChIJlzsPd_cEP44RcMUJvuxzsZA|25|Cundinamarca|4.345152|-74.361823
25293|municipio|Gachalá|ChIJ5fu6zizjP44RWJ-cgbMDoXI|25|Cundinamarca|4.693039|-73.51997
25295|municipio|Gachancipá|ChIJWa3tlwFzQI4RmwbjYUgw-Po|25|Cundinamarca|4.980389|-73.884664
15293|municipio|Gachantivá|ChIJC1oIF6XeQY4RhosOw3c4GgA|15|Boyacá|5.752134|-73.54938
25297|municipio|Gachetá|ChIJRzhBhzT4P44RUFmqYfXS73s|25|Cundinamarca|4.816972|-73.63630599999999
68296|municipio|Galán|ChIJT5wYugXQaY4RguCY6RQ5h4Y|68|Santander|6.6382018|-73.2874671
08296|municipio|Galapa|ChIJH4_7fHLU9Y4RfD5MeFU7SA0|08|Atlántico|10.8996383|-74.88618819999999
70235|municipio|Galeras|ChIJgYZ_EehLWY4R6ZFOSDMKsrg|70|Sucre|9.117596299999999|-74.9910112
25299|municipio|Gama|ChIJhX7lyzP6P44R9Cb14yIqS_Y|25|Cundinamarca|4.762033|-73.610321
20295|municipio|Gamarra|ChIJEQJ6uquQXY4RllPZWd7gEqo|20|Cesar|8.319315999999999|-73.743937
68298|municipio|Gámbita|ChIJdw53ShgPao4R8p2WqRfke8U|68|Santander|5.946137999999999|-73.3444785
15296|municipio|Gámeza|ChIJ13gRugA2ao4RvI2eB__88uM|15|Boyacá|5.802567|-72.80632
15299|municipio|Garagoa|ChIJWUmSGgSkao4RCiqHAksI09E|15|Boyacá|5.082453|-73.36504599999999
41298|municipio|Garzón|ChIJAY4XhIPZJI4RlBNwke_XaJ8|41|Huila|2.195403|-75.6274679
63302|municipio|Génova|ChIJHwPi8TIAOY4RwlT9ovT25Dw|63|Quindío|4.2497299|-75.66954
41306|municipio|Gigante|ChIJvwhBZ0ktO44R6OT3VMkA4Tg|41|Huila|2.384507|-75.54288799999999
76306|municipio|Ginebra|ChIJJXBjcabwOY4RFljqnhOh1OE|76|Valle del Cauca|3.7258839|-76.26772609999999
05306|municipio|Giraldo|ChIJLz7yNQG7RY4RoIDuJPVs7xI|05|Antioquia|6.6807761|-75.9531472
25307|municipio|Girardot|ChIJX44wVOwoP44RYAKiWicJnq0|25|Cundinamarca|4.3045959|-74.8031414
05308|municipio|Girardota|ChIJN-0pKFA7RI4R1q4f0r5bIkk|05|Antioquia|6.3774241|-75.44556620000002
68307|municipio|Girón|ChIJ_1ArkZA-aI4Rxhiw5AiXquk|68|Santander|7.080333899999999|-73.171039
05310|municipio|Gómez Plata|ChIJ3UW20GhvRI4RtA-TaUAfix4|05|Antioquia|6.6817889|-75.2197365
20310|municipio|González|ChIJ5RKg4FlhZ44RcndZiMR6VFo|20|Cesar|8.389764999999999|-73.38033229999999
54313|municipio|Gramalote|ChIJNfXGItqzZ44RNKR4LYOrnmk|54|Norte de Santander|7.8878061|-72.7977203
05313|municipio|Granada|ChIJP3a-0EWmRo4RvgExWQdDx1c|05|Antioquia|6.139621|-75.18358599999999
25312|municipio|Granada|ChIJs5-iy_wMP44Ra9RniDCZeLk|25|Cundinamarca|4.5194473|-74.3510313
50313|municipio|Granada|ChIJJTrbfqDjPY4RCXPS_j9uOsM|50|Meta|3.4583697|-73.77132
68318|municipio|Guaca|ChIJMYK50JBRaI4RkOwKAlSTVZA|68|Santander|6.9240093|-72.82791499999999
15317|municipio|Guacamayas|ChIJg_IcLL4SaY4R8E5WuJuDWHk|15|Boyacá|6.459443|-72.50000899999999
76318|municipio|Guacarí|ChIJ280KnA77OY4RpE_49cD1Png|76|Valle del Cauca|3.762980999999999|-76.332471
19300|municipio|Guachené|ChIJD_jtL5l5Oo4RR9jDMGJGPBY|19|Cauca|3.1329159|-76.393794
25317|municipio|Guachetá|ChIJGcdkj7ExQI4RtoS-RcRPUHs|25|Cundinamarca|5.383674999999999|-73.686939
52317|municipio|Guachucal|ChIJnSxtoadEKY4RJuo_I_s7vI8|52|Nariño|0.9610621|-77.73147469999999
76111|municipio|Guadalajara de Buga|ChIJGyF6xJPsOY4RQD9Djlbc460|76|Valle del Cauca|3.8946048|-76.3055772
05315|municipio|Guadalupe|ChIJU9D839NjRI4RivGNoqWpEjI|05|Antioquia|6.814741499999999|-75.2401787
41319|municipio|Guadalupe|ChIJpz9Chl4eJY4RmqMnrGtPCW0|41|Huila|2.025561|-75.758955
68320|municipio|Guadalupe|ChIJs0Caykr8aY4RQBtA77fGT98|68|Santander|6.246048999999999|-73.418739
25320|municipio|Guaduas|ChIJRzLGRWO9QI4RVH16hhrfl24|25|Cundinamarca|5.0678088|-74.5953205
52320|municipio|Guaitarilla|ChIJ-1tBhZI1KY4RDkMWb-fhKMU|52|Nariño|1.130349|-77.550994
52323|municipio|Gualmatán|ChIJiRNSXX5AKY4RyPjtIASVk_0|52|Nariño|0.9196449999999999|-77.567138
47318|municipio|Guamal|ChIJa4E5N5JeXo4RsyenZSAbPEg|47|Magdalena|9.144527|-74.22629400000001
50318|municipio|Guamal|ChIJfx-84scVPo4RmkdQKBhW6pc|50|Meta|3.880475|-73.7698769
73319|municipio|Guamo|ChIJl9bZGzjLPo4R2wXUcL2rldk|73|Tolima|4.0294609|-74.97471759999999
19318|municipio|Guapi|ChIJr06QVp33MY4RfotrnUklsIA|19|Cauca|2.5728709|-77.8889378
68322|municipio|Guapotá|ChIJd0Uo39vkaY4RqppVF7-LKPQ|68|Santander|6.3082989|-73.3212321
70265|municipio|Guaranda|ChIJs1SU9g9BXI4RmplpjvbsBKw|70|Sucre|8.468309999999999|-74.537025
05318|municipio|Guarne|ChIJG5x03K4mRI4RxuSgxRXUrJ4|05|Antioquia|6.2825086|-75.44459719999999
25322|municipio|Guasca|ChIJcanBW2N1QI4R_MW-o5gvV9s|25|Cundinamarca|4.867236|-73.877402
05321|municipio|Guatapé|ChIJu_HtcikdRI4R3HpvCZzE6cg|05|Antioquia|6.2337643|-75.1592213
25324|municipio|Guataquí|ChIJD2k_Qno3P44RRmOnWBPPM6o|25|Cundinamarca|4.5177266|-74.7897509
25326|municipio|Guatavita|ChIJs6NfSVELQI4RsDDEVPWl9OI|25|Cundinamarca|4.9344524|-73.8313318
15322|municipio|Guateque|ChIJIwDNPawCQI4Rxj9WzAbeCJQ|15|Boyacá|5.006385|-73.471423
66318|municipio|Guática|ChIJK7KhDqymR44RaMtbI0Xe9YM|66|Risaralda|5.316428|-75.799407
68324|municipio|Guavatá|ChIJLXe81qzvQY4Rim4vz6SEbhk|68|Santander|5.955225|-73.701641
25328|municipio|Guayabal de Síquima|ChIJndklMomdQI4RIjDAQxUEUwI|25|Cundinamarca|4.878241099999999|-74.467255
25335|municipio|Guayabetal|ChIJBdoQDjc1Po4Remu8y8u6x_A|25|Cundinamarca|4.21655|-73.8165503
15325|municipio|Guayatá|ChIJ4RZMFF0CQI4RkOvnl__xfWU|15|Boyacá|4.966524499999999|-73.4902546
68327|municipio|Güepsa|ChIJh4PA4Hf7QY4RBObPMpJUdOQ|68|Santander|6.025399999999999|-73.57257
15332|municipio|Güicán de La Sierra|ChIJn-kszpAUaY4RHgO2Tr04CkU|15|Boyacá|6.4630011|-72.411958
25339|municipio|Gutiérrez|ChIJJfZLSeyyP44R4kVMk4-sHJk|25|Cundinamarca|4.255066|-74.00276699999999
54344|municipio|Hacarí|ChIJ4cOUkKRtZ44R-qo5yJW_FXo|54|Norte de Santander|8.320680099999999|-73.1461958
13300|municipio|Hatillo de Loba|ChIJm-UJPbN7Xo4RpsOY4XeeZi0|13|Bolívar|8.956007|-74.0774969
85125|municipio|Hato Corozal|ChIJ90Wdp6aobo4RpKCbnyGrgEU|85|Casanare|6.154946|-71.76236
68344|municipio|Hato|ChIJvSWko5vcaY4RuKzxtKcEohw|68|Santander|6.542999200000001|-73.30808160000001
44378|municipio|Hatonuevo|ChIJlXO5OwIJi44RAoY8ZDCxBEQ|44|La Guajira|11.066345|-72.762546
05347|municipio|Heliconia|ChIJAyHPivR_Ro4R6oGiueZclxY|05|Antioquia|6.208319200000001|-75.7327743
54347|municipio|Herrán|ChIJaQrejXkmZo4RnhMyaa-Ldb8|54|Norte de Santander|7.506507300000001|-72.4830863
73347|municipio|Herveo|ChIJzytT7WxFR44RzrOD_7QAoh4|73|Tolima|5.0795648|-75.17861479999999
05353|municipio|Hispania|ChIJhaTaNKlERo4RfGYtDl7xyYE|05|Antioquia|5.7991967|-75.908417
41349|municipio|Hobo|ChIJebu74cU7O44RqJovI2FpI3c|41|Huila|2.5823879|-75.4498602
73349|municipio|Honda|ChIJDWqoWYDHQI4RfM0yvcAydC0|73|Tolima|5.207209799999999|-74.73632409999999
73001|municipio|Ibagué|ChIJX01fEZHEOI4RHkDSWTjkyuA|73|Tolima|4.444675999999999|-75.24243799999999
73352|municipio|Icononzo|ChIJSYhPHD3hPo4RDtnJUrpI3fE|73|Tolima|4.17645|-74.531723
52352|municipio|Iles|ChIJN4zmXcU4KY4RyM0IqwwdvDM|52|Nariño|0.9776099|-77.53901270000001
52354|municipio|Imués|ChIJj2ARtRU3KY4Rpu1B4mfWxFc|52|Nariño|1.0553033|-77.4960897
94001|municipio|Inírida|ChIJq_7kRcBFCo4RJq2VICog5tw|94|Guainía|3.8702044|-67.92433609999999
19355|municipio|Inzá|ChIJwZO8f-jHOo4R_sCVbi6CaQQ|19|Cauca|2.549538|-76.0652453
52356|municipio|Ipiales|ChIJu_Ce_-hrKY4RLB3He9x3zBA|52|Nariño|0.83002|-77.6415554
41357|municipio|Íquira|ChIJX5DFlHYhO44Rko9nwg1X5oo|41|Huila|2.649516|-75.635076
41359|municipio|Isnos|ChIJ65tPuSluJY4RRhSuVD1lnZ4|41|Huila|1.9304069|-76.2153744
27361|municipio|Istmina|ChIJ-yEnw3kRSI4RWPwdvOrPR4s|27|Chocó|5.157448899999999|-76.6880899
05360|municipio|Itagüí|ChIJ1ZxeBy6CRo4RQj1cRMgc0m0|05|Antioquia|6.1682915|-75.6187956
05361|municipio|Ituango|ChIJ6XxUsAEfRY4RlNmlnKKEu-4|05|Antioquia|7.1722236|-75.764398
15362|municipio|Iza|ChIJt7q50m9bao4RiPQDPjC_Pfc|15|Boyacá|5.6129693|-72.9802212
19364|municipio|Jambaló|ChIJGVO-8X2ZOo4R5NAC7Ska4PI|19|Cauca|2.7768879|-76.3247615
76364|municipio|Jamundí|ChIJ0XcILrGeMI4RfjS2yk1Desg|76|Valle del Cauca|3.2617697|-76.5403266
05364|municipio|Jardín|ChIJgSE2JZ1TRo4RvD_RfcFG5eE|05|Antioquia|5.598813199999999|-75.8198172
15367|municipio|Jenesano|ChIJgy1VBnSEao4RDPy5-Zvn7as|15|Boyacá|5.385032|-73.364139
05368|municipio|Jericó|ChIJcQAO1EdZRo4R0PwcUYZIpMQ|05|Antioquia|5.7914344|-75.78472579999999
15368|municipio|Jericó|ChIJ_cJ12Kd9aY4Renm6yRNTnn4|15|Boyacá|6.146030000000001|-72.57065399999999
25368|municipio|Jerusalén|ChIJnU-vVFZHP44RILx8lTtog9s|25|Cundinamarca|4.5627214|-74.6947265
68368|municipio|Jesús María|ChIJsSfvxbHrQY4RBUJcnv5IfuE|68|Santander|5.876805099999999|-73.78347049999999
68370|municipio|Jordán|ChIJvyEjMnLKaY4RTIU6zW2XvCE|68|Santander|6.7323866|-73.0963434
08372|municipio|Juan de Acosta|ChIJFSqH7KN59o4RtOphAi976Q8|08|Atlántico|10.829092|-75.03585799999999
25372|municipio|Junín|ChIJSUwgbVv3P44RSnHDJLxFXBE|25|Cundinamarca|4.791028|-73.663027
27372|municipio|Juradó|ChIJuWKAoQtwTo4RmlpUsYf5JSg|27|Chocó|7.102626|-77.762046
1100108|localidad|Kennedy|ChIJeWMYwSCcP44RrHXiIb6MxHI|11001|Bogotá|4.630387|-74.1376756
23350|municipio|La Apartada|ChIJmTmFbKlyW44RPv8ZnoxqIz0|23|Córdoba|8.048048999999999|-75.33410099999999
41378|municipio|La Argentina|ChIJo4gNnjI6JY4RZHat8QSGI00|41|Huila|2.198444|-75.978781
68377|municipio|La Belleza|ChIJo3XbBkSWQY4RNhCRvwoMPWY|68|Santander|5.8588043|-73.96548949999999
25377|municipio|La Calera|ChIJQb7VpjmOP44RELksgfjGvuE|25|Cundinamarca|4.7191983|-73.9690753
1100117|localidad|La Candelaria|ChIJy3nPRKiZP44RMROn2mQYjaU|11001|Bogotá|4.597014|-74.0728759
15380|municipio|La Capilla|ChIJfxdEObSgao4Rd3xAvdvGGvc|15|Boyacá|5.0957661|-73.4449058
05376|municipio|La Ceja|ChIJCZzP_1KXRo4RWOjEAADM3Qo|05|Antioquia|6.0298998|-75.4305712
66383|municipio|La Celia|ChIJ7-x-aRqMR44RegnfCUNso_0|66|Risaralda|5.003233|-76.003424
91405|área no municipalizada|La Chorrera|ChIJawzLUjsw55ERMMby2e8ByUE|91|Amazonas|-1.3789721|-72.8042797
52378|municipio|La Cruz|ChIJseUPOlAQL44RWCktkm1wa9s|52|Nariño|1.600678|-76.971119
76377|municipio|La Cumbre|ChIJbbjz80hTN44R1jfOVfqeRQk|76|Valle del Cauca|3.6507829|-76.56999499999999
17380|municipio|La Dorada|ChIJf6_kF6HeQI4RXiFBOAZxc74|17|Caldas|5.472709|-74.66798399999999
54385|municipio|La Esperanza|ChIJndfBL4bwZ44Ryrn9e8nNQ4g|54|Norte de Santander|7.639570999999999|-73.32753199999999
05380|municipio|La Estrella|ChIJsV4OqXKBRo4RAHQvci4GbNs|05|Antioquia|6.151144899999999|-75.636623
52381|municipio|La Florida|ChIJVdzscLTPLo4R9gORjjcAIUg|52|Nariño|1.298637|-77.40441899999999
20383|municipio|La Gloria|ChIJD_W2w03oXY4RvsQScx4U9r8|20|Cesar|8.6180139|-73.80227719999999
94885|área no municipalizada|La Guadalupe|ChIJLUMmbN6__Y0RLt3mz72s98I|94|Guainía|1.3648401|-67.04645909999999
20400|municipio|La Jagua de Ibirico|ChIJMWDlqmd8YI4R6NkrK9LXu98|20|Cesar|9.5642946|-73.33589979999999
44420|municipio|La Jagua del Pilar|ChIJde1kHUyVio4RrGtkAm3iOmI|44|La Guajira|10.5089602|-73.0715178
52385|municipio|La Llanada|ChIJCcoxHum_Lo4R4guQ2NRNe4Y|52|Nariño|1.472852|-77.5798499
50350|municipio|La Macarena|ChIJJ6M9KrC5Io4R7I5l53VpVxs|50|Meta|2.1831929|-73.7843783
17388|municipio|La Merced|ChIJ2YJipkMFR44RDO7Z4vJaLcg|17|Caldas|5.398218|-75.5470349
25386|municipio|La Mesa|ChIJ8bZSxShsP44RJC5pC_8I7j8|25|Cundinamarca|4.632147|-74.46301400000002
18410|municipio|La Montañita|ChIJX8dazFw5JI4RUUYsxxpcyoQ|18|Caquetá|1.4342295|-75.3878525
25394|municipio|La Palma|ChIJl89I9qb6QI4RmjBdUDFWfFI|25|Cundinamarca|5.358433|-74.390683
20621|municipio|La Paz|ChIJyeirN4a8io4RJZjzlS-uhYo|20|Cesar|10.3868315|-73.1706425
68397|municipio|La Paz|ChIJ3fhut8wDQo4R0uHyFNwaWIg|68|Santander|6.1789356|-73.5900317
91407|área no municipalizada|La Pedrera|ChIJM4qzUHqc-5ERPqTuysPNDQU|91|Amazonas|-1.3220043|-69.578386
25398|municipio|La Peña|ChIJ4UZJg7LyQI4RWpNU-uXL8SI|25|Cundinamarca|5.198890899999999|-74.39399620000002
05390|municipio|La Pintada|ChIJZagG-9rwRo4RgEFxeogtlZY|05|Antioquia|5.746942|-75.606403
41396|municipio|La Plata|ChIJuYE7XqzSOo4RFMPej6-6w9g|41|Huila|2.389011|-75.8942469
54398|municipio|La Playa|ChIJu_NPHC13Z44RysSW3C3pYqE|54|Norte de Santander|8.2153285|-73.2376623
99524|municipio|La Primavera|ChIJS6Zkk7d4co4RnAk8vyOLt1k|99|Vichada|5.4915919|-70.4139951
85136|municipio|La Salina|ChIJJ3MjQE5naY4RD4qZYlfQGSI|85|Casanare|6.179350599999999|-72.3429525
19392|municipio|La Sierra|ChIJy773UWnpL44RIDTDYLWIWXU|19|Cauca|2.1791991|-76.7633821
63401|municipio|La Tebaida|ChIJ572mdJdZOI4RVMYEByHMciQ|63|Quindío|4.453588|-75.79153
52390|municipio|La Tola|ChIJpwa-txr2LY4RRNZsmiUmWEk|52|Nariño|2.399572|-78.189712
05400|municipio|La Unión|ChIJrxOsmBWWRo4RTH0dDJsPp34|05|Antioquia|5.973839|-75.3609759
52399|municipio|La Unión|ChIJWYC77GhnKY4RZMs9tqPOOBQ|52|Nariño|0.8746999999999999|-77.80998
70400|municipio|La Unión|ChIJZ3kLRS3hW44RQDD7_dZbzv0|70|Sucre|8.8182301|-75.2829046
76400|municipio|La Unión|ChIJCTC9zG0_OI4RVKFT9JSWJwE|76|Valle del Cauca|4.529822999999999|-76.1088001
15403|municipio|La Uvita|ChIJH0UhNv5waY4Rpg9JarK6Hd0|15|Boyacá|6.317511199999999|-72.5598601
19397|municipio|La Vega|ChIJa0QsOIiWL44RAhg2WbuiCzA|19|Cauca|2.0024804|-76.7804313
25402|municipio|La Vega|ChIJVWuwlraFQI4RWhKaJYGLaZY|25|Cundinamarca|5.000528|-74.339439
91430|área no municipalizada|La Victoria|ChIJs1bfw7SH4pERHJ79A7XsF-Y|91|Amazonas|-0.1060558|-71.1448516
15401|municipio|La Victoria|ChIJLbC59P3_QI4RPJ3PRXepy2g|15|Boyacá|5.5208848|-74.23554039999999
76403|municipio|La Victoria|ChIJHzh05t5AOI4RFN3y6GdiCxg|76|Valle del Cauca|4.4664936|-75.94632399999999
66400|municipio|La Virginia|ChIJ-etP7hF4OI4ReO2vwiokaco|66|Risaralda|4.9019631|-75.88444020000001
54377|municipio|Labateca|ChIJucHILueaaI4R5s8HzAg8h_g|54|Norte de Santander|7.298617999999998|-72.496536
15377|municipio|Labranzagrande|ChIJyamYFNuua44R3kMh6WTUy6Q|15|Boyacá|5.562762999999999|-72.57762799999999
68385|municipio|Landázuri|ChIJ7fMSyD0fQo4Rmh2FJJrDJoY|68|Santander|6.2188333|-73.8097264
68406|municipio|Lebrija|ChIJufHjagcBaI4RYe5ODFrqyBc|68|Santander|7.1899943|-73.3001233
52405|municipio|Leiva|ChIJw32ELuFRLo4RwgyqjXZZxGU|52|Nariño|1.9354157|-77.3035623
50400|municipio|Lejanías|ChIJU85x8_vZPY4R9CgFVin_7dw|50|Meta|3.5272204|-74.022413
25407|municipio|Lenguazaque|ChIJM97f0FE6QI4R1mYRsAp07Dc|25|Cundinamarca|5.3060578|-73.7121453
73408|municipio|Lérida|ChIJpf-R3bxVP44RdJU1t1eCCmw|73|Tolima|4.860823|-74.912667
91001|municipio|Leticia|ChIJv49INkzx8pERwDbGp5dFsdk|91|Amazonas|-4.203164999999999|-69.935907
73411|municipio|Líbano|ChIJmaRJ_3hWR44RfMFz7S5geEk|73|Tolima|4.9224602|-75.0642244
05411|municipio|Liborina|ChIJ_yljioaxRY4REgDughC-JaE|05|Antioquia|6.677449999999999|-75.81174399999999
52411|municipio|Linares|ChIJf4kcC8nHLo4RxKHIgaoHLY0|52|Nariño|1.350933|-77.52387000000002
27413|municipio|Lloró|ChIJTVAMgLl-SI4RBiA8xT8c9N0|27|Chocó|5.499682|-76.542596
19418|municipio|López de Micay|ChIJacj2YWeyMY4RJhzlEVL3F98|19|Cauca|2.8458039|-77.24803899999999
23417|municipio|Lorica|ChIJ2-VYyMmYWY4RxJaGQldgRvs|23|Córdoba|9.2376398|-75.81362450000002
52418|municipio|Los Andes|ChIJeddCs0nqLo4R9lPbRQErPWM|52|Nariño|1.4937224|-77.5213227
23419|municipio|Los Córdobas|ChIJvYzV5CQCWo4RdU5AAZ0q7q0|23|Córdoba|8.89508|-76.35459
1100114|localidad|Los Mártires|ChIJGRtzwW-ZP44RyhT1aOU51Wc|11001|Bogotá|4.6066345|-74.08819450000001
70418|municipio|Los Palmitos|ChIJaRZIh5I8WY4RBDZbT899LpQ|70|Sucre|9.380493999999999|-75.27095
54405|municipio|Los Patios|ChIJ591PnA5GZo4RAG869vc1DAM|54|Norte de Santander|7.833199|-72.504392
68418|municipio|Los Santos|ChIJbW9OTo7KaY4R9FfB5dzUgao|68|Santander|6.755733999999999|-73.102305
54418|municipio|Lourdes|ChIJ9XWxuSCuZ44RaymcS3n2AP4|54|Norte de Santander|7.9451674|-72.83228199999999
08421|municipio|Luruaco|ChIJeTgjTkUN9o4RcKTsYZBIN3E|08|Atlántico|10.6104139|-75.14324359999999
15425|municipio|Macanal|ChIJtyBkx6uvao4RQsuNKqUqhII|15|Boyacá|4.9723166|-73.31971209999999
68425|municipio|Macaravita|ChIJTTrXbRUMaY4Rsu7Cc7sPAsc|68|Santander|6.506420899999999|-72.5932425
05425|municipio|Maceo|ChIJCV4IWXmNQ44Rr_YYE4gdjWQ|05|Antioquia|6.551367|-74.787294
25426|municipio|Machetá|ChIJLwZhpzQaQI4RvAHQtEacLhY|25|Cundinamarca|5.081005999999999|-73.608052
25430|municipio|Madrid|ChIJh_d9VzV4P44RSB2vpGoH5A8|25|Cundinamarca|4.7335375|-74.2624115
13430|municipio|Magangué|ChIJ6RxTtsfHXo4R_GOzBYvVnTA|13|Bolívar|9.2414156|-74.7527587
52427|municipio|Magüí|ChIJ-xOYdm0zLI4R8K0UgiG7LdY|52|Nariño|1.7658466|-78.1838239
13433|municipio|Mahates|ChIJBTA3d7KnWI4RvkLseD7Alo8|13|Bolívar|10.2369948|-75.18847509999999
44430|municipio|Maicao|ChIJZwJP2NTzi44RxqeJ4A1FoTE|44|La Guajira|11.3800543|-72.2422465
70429|municipio|Majagual|ChIJnZxvrDwVXI4RORkCj7JeM7s|70|Sucre|8.539811799999999|-74.6282746
68432|municipio|Málaga|ChIJB9y3qBiqaY4RjPeMG3cgYJ0|68|Santander|6.7018002|-72.73206170000002
08433|municipio|Malambo|ChIJC2BUXgTO9Y4Reo7FcT1bAyk|08|Atlántico|10.8575824|-74.7746834
52435|municipio|Mallama|ChIJ4TfWZFxUKY4RzGc6hdT327k|52|Nariño|1.140872|-77.8645669
08436|municipio|Manatí|ChIJoWkUHK_i9Y4Rmuz1mEn3XmU|08|Atlántico|10.449239|-74.95937099999999
20443|municipio|Manaure Balcón del Cesar|ChIJ7e0y5PGWio4R84NT4CV7eSg|20|Cesar|10.3923673|-73.0270833
44560|municipio|Manaure|ChIJ67TZpNZ7jI4Rzql4IEeQQUU|44|La Guajira|11.5763759|-72.5678041
85139|municipio|Maní|ChIJK3zVgtW0FI4RpHh3iZs7Mys|85|Casanare|4.8170249|-72.28271029999999
17001|municipio|Manizales|ChIJO85CavpvR44RHBTqI2TPY6g|17|Caldas|5.0629743|-75.5027698
25436|municipio|Manta|ChIJSeicT0kDQI4RDlstrbGlJFY|25|Cundinamarca|5.0089271|-73.5413846
17433|municipio|Manzanares|ChIJ7bh3-383R44RKEwS74YgJXw|17|Caldas|5.2537221|-75.15416820000002
50325|municipio|Mapiripán|ChIJdQNLs5goF44RSJdeYQunspA|50|Meta|2.892506|-72.13317500000001
13440|municipio|Margarita|ChIJW9xxVGtiXo4RugHY9Sv5bw8|13|Bolívar|9.0425436|-74.24140919999999
13442|municipio|María La Baja|ChIJifRHN1G-WI4R2jrHjqa3S5o|13|Bolívar|9.983431500000002|-75.30223749999999
05440|municipio|Marinilla|ChIJOfSZGSSgRo4R4lc07teRUEg|05|Antioquia|6.1731064|-75.3378851
15442|municipio|Maripí|ChIJaQMjWvWyQY4RnOe7pvRUuTI|15|Boyacá|5.549623|-74.0046909
17442|municipio|Marmato|ChIJmTXdX_MDR44R0GCC5eVpi0M|17|Caldas|5.474716|-75.601051
17444|municipio|Marquetalia|ChIJSd0AK_kzR44RVjlZrnZ3djw|17|Caldas|5.300064|-75.051548
66440|municipio|Marsella|ChIJ2579yUeAR44RXtXLkcMaBHM|66|Risaralda|4.9371072|-75.7393372
17446|municipio|Marulanda|ChIJIeFBcro-R44RcBem23dtar0|17|Caldas|5.284591799999999|-75.2606524
68444|municipio|Matanza|ChIJ5X0tCTVyaI4R9Nnaj5zgItM|68|Santander|7.32278|-73.015958
05001|municipio|Medellín|ChIJBa0PuN8oRI4RVju1x_x8E0I|05|Antioquia|6.2476376|-75.56581530000001
25438|municipio|Medina|ChIJi7uWdDdnFY4R1mjHkJoaKzE|25|Cundinamarca|4.4922979|-73.4180211
27425|municipio|Medio Atrato|ChIJn_RGbOqkSI4RRDJhHLQnenM|27|Chocó|5.989716400000001|-76.7336521
27430|municipio|Medio Baudó|ChIJ8QcrauwwSI4RNp0-XMYbHdU|27|Chocó|5.1334095|-76.964306
27450|municipio|Medio San Juan|ChIJlbVfwIUQSI4R52gokoxyFQU|27|Chocó|5.0997218|-76.6968481
73449|municipio|Melgar|ChIJYyk9UwDfPo4Rplcde_K5dqs|73|Tolima|4.203571999999999|-74.643383
19450|municipio|Mercaderes|ChIJnZEGpZaqL44REIDD8uiMpY4|19|Cauca|1.795801|-77.163397
50330|municipio|Mesetas|ChIJU-KJl0LPPY4RxhoG-mSkjUk|50|Meta|3.381995|-74.043801
18460|municipio|Milán|ChIJUQnk3Ls6JI4RuKCBVxZ1kZk|18|Caquetá|1.33546|-75.51080999999999
15455|municipio|Miraflores|ChIJ4VW7Oa6Vao4RsBPUpQ4OZfA|15|Boyacá|5.1954239|-73.1443219
95200|municipio|Miraflores|ChIJCewJej_xG44RJ6J87cY629k|95|Guaviare|1.337454|-71.950914
19455|municipio|Miranda|ChIJB2tSnSxsOo4RijcWTuWra98|19|Cauca|3.2135542|-76.2131474
91460|área no municipalizada|Mirití - Paraná|ChIJC5hHIa4I45ERv-wFjAbiVE8|91|Amazonas|-0.71658|-71.10164999999999
66456|municipio|Mistrató|ChIJO5Cc1EajR44RqMnwatf4icI|66|Risaralda|5.2962025|-75.88155549999999
97001|municipio|Mitú|ChIJAcvX4nulBI4RNInCZ6V10iY|97|Vaupés|1.2521739|-70.23361799999999
86001|municipio|Mocoa|ChIJ-QFNp4ayKI4RYKHYbO7AVgg|86|Putumayo|1.1477941|-76.64812839999999
68464|municipio|Mogotes|ChIJR8f8s-q9aY4RLnFa2PuVpi4|68|Santander|6.4767831|-72.97118669999999
68468|municipio|Molagavita|ChIJtS1IzcuuaY4RCM0RulOl1fk|68|Santander|6.6739567|-72.8087731
23464|municipio|Momil|ChIJq4WHaiN1WY4Rhjtf8ANxqk8|23|Córdoba|9.2393813|-75.6765372
15464|municipio|Mongua|ChIJL-0Hj9NLao4ROtf_RYdukJ8|15|Boyacá|5.7541536|-72.7998479
15466|municipio|Monguí|ChIJ-ROZPipJao4RZLd9pUtkMKw|15|Boyacá|5.724062399999999|-72.8487442
15469|municipio|Moniquirá|ChIJDaO5_8XmQY4RsIOUo2o9px0|15|Boyacá|5.875986999999999|-73.57359
05467|municipio|Montebello|ChIJyw-09XLrRI4RD4lbTnCuakk|05|Antioquia|7.135359999999999|-75.37754
13458|municipio|Montecristo|ChIJjS1ec6JbXI4RnoAK5kaYZ14|13|Bolívar|8.294838|-74.4750948
23466|municipio|Montelíbano|ChIJL4Jg1-kTW44RVugQTRdkj90|23|Córdoba|7.976803|-75.417209
63470|municipio|Montenegro|ChIJkXHQnclfOI4RunwDnZiIa-k|63|Quindío|4.566637|-75.75012
23001|municipio|Montería|ChIJrTFwpeUvWo4RoMDXLq3L4ZI|23|Córdoba|8.750983|-75.8785348
85162|municipio|Monterrey|ChIJc-rrN37Sao4RBLUEtX6NqRI|85|Casanare|4.878142599999999|-72.896479
23500|municipio|Moñitos|ChIJMdis6_XqWY4R9n6HX3GFB2k|23|Córdoba|9.246122699999999|-76.1316984
13473|municipio|Morales|ChIJGeonc16iXY4R_gWUr_F7dJE|13|Bolívar|8.27533|-73.86817599999999
19473|municipio|Morales|ChIJsyYkBnJyMI4RVFzx0iVzZZE|19|Cauca|2.753912|-76.628114
18479|municipio|Morelia|ChIJZQ_drEi1JY4RUAlYC0A2_qk|18|Caquetá|1.485694|-75.723179
94888|área no municipalizada|Morichal|ChIJ85kKRqVjBY4R6G68iU22E64|94|Guainía|2.2637|-69.91847
70473|municipio|Morroa|ChIJZaCcvUI9WY4RXPP7SLA8AX0|70|Sucre|9.389942999999999|-75.3178952
25473|municipio|Mosquera|ChIJZwigrfB3P44RQGa6Jb92qUM|25|Cundinamarca|4.7092566|-74.22622989999999
52473|municipio|Mosquera|ChIJQ6jcv-pwMo4RqjSumhep5GQ|52|Nariño|2.50923|-78.451284
15476|municipio|Motavita|ChIJy9Mxgf57ao4R2CtIxjdy7zE|15|Boyacá|5.577547|-73.368186
73461|municipio|Murillo|ChIJTXmCT-SyPo4Rf2JAh9HH7WY|73|Tolima|3.80419|-74.94281
05475|municipio|Murindó|ChIJrzI--VufT44RKyXafsXtHlo|05|Antioquia|6.976297|-76.81975
05480|municipio|Mutatá|ChIJA42uOulfRY4RKLBM--Ny2wM|05|Antioquia|7.2440551|-76.436769
54480|municipio|Mutiscua|ChIJ6YR-Xhp9aI4R1CiVlegLvrg|54|Norte de Santander|7.300196|-72.746803
15480|municipio|Muzo|ChIJi2O5O76sQY4RBG4FVLH_hm4|15|Boyacá|5.531629|-74.103016
05483|municipio|Nariño|ChIJ4XmAHu3ZRo4RSDBKxKU-i2I|05|Antioquia|5.611015|-75.174162
25483|municipio|Nariño|ChIJayTntiwuP44RuFyYKkMgD7Y|25|Cundinamarca|4.398277999999999|-74.828718
52480|municipio|Nariño|ChIJ7yMYrrHRLo4RNsq0OOwEXPs|52|Nariño|1.2897467|-77.3580033
41483|municipio|Nátaga|ChIJpUBnigHaOo4R4q9ISA4SKTQ|41|Huila|2.544621|-75.8089408
73483|municipio|Natagaima|ChIJGcZZ8SZWOY4RAgK2QK-Eq_Y|73|Tolima|3.625529|-75.093183
05495|municipio|Nechí|ChIJO7B97PeFXI4RNHd0k1qoqAI|05|Antioquia|8.0909315|-74.77964659999999
05490|municipio|Necoclí|ChIJ1Z-QEnqNUI4RFhUhq3rhTCs|05|Antioquia|8.427173999999999|-76.787678
17486|municipio|Neira|ChIJ1dEJFoxtR44RqGHzQZuQFqk|17|Caldas|5.1664404|-75.5205472
41001|municipio|Neiva|ChIJCUBrWnx0O44RmlMlu2LxrGk|41|Huila|2.9344837|-75.2809001
25486|municipio|Nemocón|ChIJpxJKofxsQI4RisDORFNPyb0|25|Cundinamarca|5.066968999999999|-73.880696
25488|municipio|Nilo|ChIJ0YpApZMhP44RQg_x2xW7hxA|25|Cundinamarca|4.307339|-74.619935
25489|municipio|Nimaima|ChIJ6wUEw-6NQI4RwcF0y7kfVqw|25|Cundinamarca|5.1253666|-74.3866809
15491|municipio|Nobsa|ChIJHUSOLq9Hao4RvGG0pjo781k|15|Boyacá|5.7711248|-72.9395601
25491|municipio|Nocaima|ChIJQSl9nraPQI4RgLFA2a-p6K4|25|Cundinamarca|5.069434999999999|-74.38030499999999
17495|municipio|Norcasia|ChIJdSTyKs0rQY4RwNx9eCcga88|17|Caldas|5.576269|-74.889557
13490|municipio|Norosí|ChIJfZsO23DIXY4R197Zmq2UmZw|13|Bolívar|8.528027|-74.037018
27491|municipio|Nóvita|ChIJezTyM-UCSI4R_uDGt9hxyoQ|27|Chocó|4.9564005|-76.6088242
47460|municipio|Nueva Granada|ChIJ1aebzQkOX44RqaNGoLWi3pA|47|Magdalena|9.800019899999999|-74.3912643
15494|municipio|Nuevo Colón|ChIJIU3Z7piCao4RGHrXcVXPyBo|15|Boyacá|5.3542247|-73.457413
85225|municipio|Nunchía|ChIJJ7rCl4yQa44R7sH1gjMBuWA|85|Casanare|5.638097|-72.195527
27495|municipio|Nuquí|ChIJTdU71pgDSY4RCtrXuxAdD2I|27|Chocó|5.709563|-77.2666969
76497|municipio|Obando|ChIJ8wMY0BNCOI4RqHdEn8ucqxo|76|Valle del Cauca|4.575601|-75.972669
68498|municipio|Ocamonte|ChIJWXT4xeLsaY4RhjZOaqGp_bo|68|Santander|6.339779999999999|-73.122163
54498|municipio|Ocaña|ChIJQ-Rsq-57Z44RUIF58Pp7dCQ|54|Norte de Santander|8.252049999999999|-73.3532199
68500|municipio|Oiba|ChIJi4nB4Yr6aY4R3PlCO7P2XEs|68|Santander|6.26467|-73.29838000000001
15500|municipio|Oicatá|ChIJ8yZKvBN7ao4RJLz2Bva28lM|15|Boyacá|5.59445|-73.3082529
52490|municipio|Olaya Herrera|ChIJ39yRP8CMLY4RNqHT-UayCRU|52|Nariño|2.2740962|-78.3159411
05501|municipio|Olaya|ChIJ0w_s6VKxRY4R6KWT30aniOc|05|Antioquia|6.628031699999999|-75.8124747
68502|municipio|Onzaga|ChIJczT-A5SbaY4R_4LphS-luZs|68|Santander|6.3488022|-72.82791499999999
41503|municipio|Oporapa|ChIJ-0BDmh8UJY4RLkS57zjSEV0|41|Huila|2.0259109|-75.99496400000001
86320|municipio|Orito|ChIJKRFYgHjzKI4RIj20AG0lD8g|86|Putumayo|0.6766344999999999|-76.87960609999999
85230|municipio|Orocué|ChIJ_y5ddyotE44RxGRwYZkMWYo|85|Casanare|4.789388|-71.33936299999999
73504|municipio|Ortega|ChIJBXq8R544OY4REAnX1FOxOQs|73|Tolima|3.935841|-75.220606
52506|municipio|Ospina|ChIJV28X7CZIKY4RUhfvQm0ExaM|52|Nariño|1.058464|-77.5661219
15507|municipio|Otanche|ChIJU-fdkWeoQY4R4HDZxl57kgo|15|Boyacá|5.658513999999999|-74.181142
70508|municipio|Ovejas|ChIJqX5secQmWY4R0EeGsIQ0hO0|70|Sucre|9.525146|-75.2296693
15511|municipio|Pachavita|ChIJjXCbzryhao4Rgr0uyxTJy70|15|Boyacá|5.1405745|-73.3975804
25513|municipio|Pacho|ChIJD3BEvBJhQI4RTrRkhHbro4Q|25|Cundinamarca|5.132306199999999|-74.15770069999999
97511|área no municipalizada|Pacoa|ChIJl9VaOsVyHY4RkBeEBOm6b0M|97|Vaupés|0.1410295|-70.6216794
17513|municipio|Pácora|ChIJPxi4FpUdR44R_A5dOkSKtig|17|Caldas|5.527995|-75.459881
19513|municipio|Padilla|ChIJEXH22qFxOo4RXOlKeGhs11w|19|Cauca|3.223586|-76.3133579
15514|municipio|Páez|ChIJLQwt5OfAao4R5re4c-HgcgM|15|Boyacá|5.1000249|-73.052166
19517|municipio|Páez|ChIJuwdrnMjDOo4RDNmXBPPcj5E|19|Cauca|2.647228|-75.97343599999999
41518|municipio|Paicol|ChIJN1qSNTrUOo4RKHqehwHw0vc|41|Huila|2.4493146|-75.7745343
20517|municipio|Pailitas|ChIJowg1ow4FXo4R5n-PhqUBShM|20|Cesar|8.959667|-73.626268
25518|municipio|Paime|ChIJrQB3QGtXQI4RVnBrL-cUI-g|25|Cundinamarca|5.370625|-74.152796
15516|municipio|Paipa|ChIJocKYm-5qao4RuPSniWpizu8|15|Boyacá|5.77977|-73.11472499999999
15518|municipio|Pajarito|ChIJAy4Qw10da44R4sAJ0l2xxec|15|Boyacá|5.2931929|-72.70281790000001
41524|municipio|Palermo|ChIJYRPh0SkMO44RbOEm7CUhwgA|41|Huila|2.886246|-75.433419
17524|municipio|Palestina|ChIJqYt_RX55R44R1lxAajanbCA|17|Caldas|5.0201847|-75.620172
41530|municipio|Palestina|ChIJ4bwp7B-fJY4RjGss9PgIXLM|41|Huila|1.723926|-76.13449010000001
08520|municipio|Palmar de Varela|ChIJT0Ux7RbF9Y4R2m7coMjlL1c|08|Atlántico|10.74044|-74.75527199999999
68522|municipio|Palmar|ChIJY4uBJ7vcaY4RSGXWpBbaja8|68|Santander|6.538811099999999|-73.29126339999999
68524|municipio|Palmas del Socorro|ChIJjZbSsyLmaY4RVSuRjKmi2Mw|68|Santander|6.4062937|-73.287739
76520|municipio|Palmira|ChIJ7VzukugEOo4RepOnnYtiHWQ|76|Valle del Cauca|3.5378587|-76.29723700000001
70523|municipio|Palmito|ChIJnTiWXuINWY4RJFINAOydT1s|70|Sucre|9.333658999999999|-75.540823
73520|municipio|Palocabildo|ChIJtbnDLWVMR44RBDp5MNFZp_k|73|Tolima|5.119358|-75.023736
54518|municipio|Pamplona|ChIJFQyqIheBaI4R1Ld9j-mQt4M|54|Norte de Santander|7.373314599999999|-72.6482058
54520|municipio|Pamplonita|ChIJ8bNvIAsqZo4RGJp8GUHkPPY|54|Norte de Santander|7.437158999999999|-72.63841900000001
94887|área no municipalizada|Pana Pana|ChIJX6RQxrPQBY4RLjKHk-C_9kA|94|Guainía|1.84079|-69.00479
25524|municipio|Pandi|ChIJZy0f1c_jPo4RMnbn3jyQpWo|25|Cundinamarca|4.19065|-74.486751
15522|municipio|Panqueba|ChIJCzCSIDITaY4RcpbqBSFe9Zc|15|Boyacá|6.4426733|-72.4594939
97777|área no municipalizada|Papunahua|ChIJ86tQLVYuG44RHFrJttS0C-c|97|Vaupés|1.8028463|-70.7168469
68533|municipio|Páramo|ChIJHzdC5NHraY4RAYaCyYWgAyQ|68|Santander|6.432052499999999|-73.17036279999999
25530|municipio|Paratebueno|ChIJjSOJeiRuFY4ROnJ88d9xmfY|25|Cundinamarca|4.3746917|-73.2120879
25535|municipio|Pasca|ChIJzeeK9FEBP44RCrSulE-puCg|25|Cundinamarca|4.308498|-74.299995
52001|municipio|Pasto|ChIJcyq5YYfULo4RIqXDbFZoo0Q|52|Nariño|1.2058837|-77.285787
19532|municipio|Patía|ChIJ7RD_7rW3L44R4_bXdteaZNw|19|Cauca|2.0706352|-77.05160409999999
15531|municipio|Pauna|ChIJRSzJaImwQY4R0qcMd3IwTTQ|15|Boyacá|5.657396299999999|-73.9794273
15533|municipio|Paya|ChIJf5R9MVWja44REr8NZNgqoMg|15|Boyacá|5.6260229|-72.4221792
85250|municipio|Paz de Ariporo|ChIJA-E6qhoJbI4RFNJVvC2OsAQ|85|Casanare|5.880639|-71.892912
15537|municipio|Paz de Río|ChIJ_6IskQ4tao4RVjssJO4vHKw|15|Boyacá|5.987618899999999|-72.74707599999999
47541|municipio|Pedraza|ChIJE8uoBmNUX44RiCsc48E0128|47|Magdalena|10.1888061|-74.9157621
20550|municipio|Pelaya|ChIJ14QVIC_lXY4RDhp_6TnoHTI|20|Cesar|8.688030999999999|-73.666377
17541|municipio|Pensilvania|ChIJO2NQJVElR44RfgsP9Dtf_38|17|Caldas|5.38211|-75.16142599999999
05541|municipio|Peñol|ChIJBRMhx-AdRI4RKgY4Mh7FuS0|05|Antioquia|6.2199662|-75.2435307
05543|municipio|Peque|ChIJ_VKxRI4PRY4RPNx9M9Wo_oQ|05|Antioquia|7.021420099999999|-75.9088137
66001|municipio|Pereira|ChIJ_cFW60iHOI4RvN_x-RCUs5U|66|Risaralda|4.8087174|-75.690601
15542|municipio|Pesca|ChIJ_UQmsGVeao4RVoVuSYFUWEs|15|Boyacá|5.558883|-73.050631
19533|municipio|Piamonte|ChIJ15RVsqH7JY4RlC-8kq8BEvo|19|Cauca|1.2155968|-76.4100267
68547|municipio|Piedecuesta|ChIJkb7gN69HaI4RIJmhOB0o6GY|68|Santander|6.991539|-73.05399799999999
73547|municipio|Piedras|ChIJ2SsE9Ns1P44RE4beVEiPXNA|73|Tolima|4.4263944|-74.9442585
19548|municipio|Piendamó - Tunía|ChIJ0zd5fekLMI4RaLkcpY2aAcg|19|Cauca|2.6434439|-76.5330714
63548|municipio|Pijao|ChIJOWgFpVH_OI4RIE9189IeB_g|63|Quindío|4.334346099999999|-75.7036308
47545|municipio|Pijiño del Carmen|ChIJQ2PTQrlUXo4RcjGIch39aQo|47|Magdalena|9.3302391|-74.4532954
68549|municipio|Pinchote|ChIJcRNBd1rBaY4RUK-2gJKhkjc|68|Santander|6.5141373|-73.17036279999999
13549|municipio|Pinillos|ChIJvYTa-VycXo4RCylVzwQdn4A|13|Bolívar|8.834713899999999|-74.3822058
08549|municipio|Piojó|ChIJlyKLgapx9o4RxDzJq3juaHw|08|Atlántico|10.748716|-75.107922
15550|municipio|Pisba|ChIJ6zgYApq5a44RnRzcTlGbd8Y|15|Boyacá|5.722797|-72.48457499999999
41548|municipio|Pital|ChIJryJeXtMoJY4RtLMbW5FBvEw|41|Huila|2.266733|-75.803848
41551|municipio|Pitalito|ChIJ_2Rvun0LJY4RLKOPLrPnmXo|41|Huila|1.8563309|-76.04616109999999
47551|municipio|Pivijay|ChIJL5xLYh_t9Y4RHE84yqzuoqA|47|Magdalena|10.4622312|-74.6168593
73555|municipio|Planadas|ChIJv4nhw0qyO44R1BxBps1Bw1E|73|Tolima|3.197241|-75.64381700000001
23555|municipio|Planeta Rica|ChIJcUjnJMaxW44RKEg5xqkVKLw|23|Córdoba|8.412749|-75.584048
47555|municipio|Plato|ChIJ5zUSsZ0wX44RNGKdSYaHSxs|47|Magdalena|9.793828|-74.7827564
52540|municipio|Policarpa|ChIJc8IyMTz0Lo4R1kE0NIypbRM|52|Nariño|1.7693536|-77.4931403
08558|municipio|Polonuevo|ChIJQbk7fAva9Y4RXCWdL329Wks|08|Atlántico|10.777471|-74.853162
08560|municipio|Ponedera|ChIJQx0ZvubC9Y4RvIqThIuO8lU|08|Atlántico|10.641772|-74.753281
19001|municipio|Popayán|ChIJfdQowBEDMI4RTqWHCX_WC4g|19|Cauca|2.4448143|-76.6147395
85263|municipio|Pore|ChIJKxWmSFSKa44RXI5pAskFSb4|85|Casanare|5.726562899999999|-71.99394099999999
52560|municipio|Potosí|ChIJGQvpfKhsKY4REqOiFKQ6xxk|52|Nariño|0.8073568|-77.5725794
76563|municipio|Pradera|ChIJryTmCpYROo4RQCxf2cS6zjw|76|Valle del Cauca|3.4195763|-76.24053119999999
73563|municipio|Prado|ChIJ4wnlAg2tPo4REvJBVQ3uBfc|73|Tolima|3.74973|-74.92773199999999
88564|municipio|Providencia|ChIJi4_PE_fSBI8R4i4bF-FjG0k|88|Archipiélago de San Andrés, Providencia Y Santa Catalina|13.3814247|-81.36574279999999
52565|municipio|Providencia|ChIJHVvKaMi1Lo4RDBxV423zgBA|52|Nariño|1.2120223|-77.5963271
20570|municipio|Pueblo Bello|ChIJRyCQqI1O9Y4RlAcjQjs0iuQ|20|Cesar|10.4214687|-73.57979399999999
23570|municipio|Pueblo Nuevo|ChIJYx66zsa5W44RRnS-ZffR7Gw|23|Córdoba|8.503178|-75.5075239
66572|municipio|Pueblo Rico|ChIJE7COEZuVR44RgngxyKDSbpQ|66|Risaralda|5.221976|-76.03042330000001
05576|municipio|Pueblorrico|ChIJUaPihppbRo4RhusA_-dxHJQ|05|Antioquia|5.794161|-75.840589
47570|municipio|Puebloviejo|ChIJ0wJt3UBU9I4R8EnpnjoZWGw|47|Magdalena|10.992353|-74.284038
1100116|localidad|Puente Aranda|ChIJtbVi8lqZP44R4OCH4LRAv58|11001|Bogotá|4.6149019|-74.11409619999999
68572|municipio|Puente Nacional|ChIJo3FR2-HoQY4RCbQVaXCguAU|68|Santander|5.8454067|-73.6771662
52573|municipio|Puerres|ChIJETv-EYgVKY4RKn4o7JxMbqQ|52|Nariño|0.8831593999999999|-77.5040784
91530|área no municipalizada|Puerto Alegría|ChIJDwb55e5v3pERJe6U-PR7FAA|91|Amazonas|-1.005614|-74.0142539
91536|área no municipalizada|Puerto Arica|ChIJdUd3C4Lv5ZERnosakz1Pz_s|91|Amazonas|-2.1495|-71.7546
86568|municipio|Puerto Asís|ChIJe2myTdl4KI4RXptvXl3v4Bo|86|Putumayo|0.4985097|-76.4977428
05579|municipio|Puerto Berrío|ChIJXy4GEQnIQ44RWGrBDx9JMJY|05|Antioquia|6.4895388|-74.4047587
15572|municipio|Puerto Boyacá|ChIJqbHzlSxoQY4RJqSEarr61YA|15|Boyacá|5.975676699999999|-74.5922391
86569|municipio|Puerto Caicedo|ChIJra8tBE-EKI4RflYwpkNXBaI|86|Putumayo|0.6842064|-76.60416169999999
99001|municipio|Puerto Carreño|ChIJnesZ6TEZdo4RODhrxR5yqIc|99|Vichada|6.1899117|-67.48256959999999
08573|municipio|Puerto Colombia|ChIJk20tspcq9I4RJnC4d3SI2h8|08|Atlántico|10.9913696|-74.95628669999999
94884|área no municipalizada|Puerto Colombia|ChIJQSjM_fsvCI4RNDArDtEpKiE|94|Guainía|2.72032|-67.56446
50450|municipio|Puerto Concordia|ChIJy7I4OwafF44Roln61seVTdg|50|Meta|2.6227918|-72.7598422
23574|municipio|Puerto Escondido|ChIJX8GYfq7wWY4RBO9OGvmY_oE|23|Córdoba|9.008341|-76.261398
50568|municipio|Puerto Gaitán|ChIJ0_9OMvCEFI4REL1HaOL-DCc|50|Meta|4.3123762|-72.0826822
86571|municipio|Puerto Guzmán|ChIJRVmaZC0cJo4R3oXOne8wGXI|86|Putumayo|0.9637699999999999|-76.40798099999999
86573|municipio|Puerto Leguízamo|ChIJj4SlNXxP35ERfDvNBxxFyMQ|86|Putumayo|-0.1913603|-74.78374099999999
23580|municipio|Puerto Libertador|ChIJk3b3MIIfW44Ryv2SM8R1ChY|23|Córdoba|7.8877104|-75.67099759999999
50577|municipio|Puerto Lleras|ChIJDSBjg_khFo4RmDvEIJjj_V4|50|Meta|3.272414|-73.369542
50573|municipio|Puerto López|ChIJA54s5_ikFY4RFuxDXzuGuDk|50|Meta|4.091354|-72.955918
05585|municipio|Puerto Nare|ChIJU5-8-PrfQ44RLjPjYds1-Wo|05|Antioquia|6.186497|-74.583726
91540|municipio|Puerto Nariño|ChIJa5ZGyMwL8pERUBXxcmrpkjM|91|Amazonas|-3.7888675|-70.3556424
68573|municipio|Puerto Parra|ChIJJbGcFtxPQo4RRlmJoVvbhEc|68|Santander|6.650797|-74.0559339
18592|municipio|Puerto Rico|ChIJ-Tu33faPJI4RIpwhcdNNwZU|18|Caquetá|1.909918|-75.157235
50590|municipio|Puerto Rico|ChIJO-_tTu3MF44RtiD5k27gEMU|50|Meta|2.941214|-73.20746799999999
81591|municipio|Puerto Rondón|ChIJnSJS-4hjbo4RLISIo05NHME|81|Arauca|6.281167|-71.1047959
25572|municipio|Puerto Salgar|ChIJX8td25LeQI4R4tRPNaFB7EM|25|Cundinamarca|5.467414|-74.652693
91669|área no municipalizada|Puerto Santander|ChIJzR-RuaYL4ZERcfzMneDHsQI|91|Amazonas|-0.6218736|-72.3825557
54553|municipio|Puerto Santander|ChIJ717yfenrZo4REurjw8XXH0Q|54|Norte de Santander|8.361323|-72.408389
19573|municipio|Puerto Tejada|ChIJ3ZqBUmZ2Oo4RkH1RE4C5riw|19|Cauca|3.22059|-76.415465
05591|municipio|Puerto Triunfo|ChIJWVFWmYtAQY4R5QNoKyQj5oQ|05|Antioquia|5.872518800000001|-74.63988599999999
68575|municipio|Puerto Wilches|ChIJRQGFZfrIQo4RvGQOgElgGCw|68|Santander|7.3483695|-73.9029954
25580|municipio|Pulí|ChIJ34c58_VEP44RfseiuX5ke0U|25|Cundinamarca|4.6825979|-74.713599
52585|municipio|Pupiales|ChIJ2cx0fBBqKY4R5n-hFLXY07Y|52|Nariño|0.8691498|-77.6382228
19585|municipio|Puracé|ChIJC7gBfBz_L44RqDaGkGD9TR4|19|Cauca|2.3806502|-76.45558559999999
73585|municipio|Purificación|ChIJrRKyT5q0Po4R2vrWeDb2fpc|73|Tolima|3.8693928|-74.8507131
23586|municipio|Purísima de La Concepción|ChIJlwFJVeafWY4RfJF_kq30CKI|23|Córdoba|9.2368177|-75.7235383
25592|municipio|Quebradanegra|ChIJoQQkfF-RQI4RxMEwe-M9DpM|25|Cundinamarca|5.117721|-74.479244
25594|municipio|Quetame|ChIJTZIr5Ti2P44R2EoU-F3f3Zo|25|Cundinamarca|4.32998|-73.86318299999999
27001|municipio|Quibdó|ChIJqegIfHSPSI4RimvoX30NaLk|27|Chocó|5.695633|-76.649812
63594|municipio|Quimbaya|ChIJ8UFHzf9gOI4RHrNn2qEKTmk|63|Quindío|4.625907|-75.761865
66594|municipio|Quinchía|ChIJX7Gr926nR44RRNLbsm2SQdo|66|Risaralda|5.341119099999999|-75.73047559999999
15580|municipio|Quípama|ChIJaZ79RNCqQY4RzKGVMVB8v5o|15|Boyacá|5.5196428|-74.1790601
25596|municipio|Quipile|ChIJY8uRZUVmP44RJpzs8UNZqvY|25|Cundinamarca|4.7446183|-74.53336399999999
1100118|localidad|Rafael Uribe Uribe|ChIJM95Jj7eYP44RZP91dTHHG9Y|11001|Bogotá|4.5762835|-74.1173688
54599|municipio|Ragonvalia|ChIJXefjUCclZo4R9gD7vuTRiSk|54|Norte de Santander|7.5780261|-72.4755553
15599|municipio|Ramiriquí|ChIJ50Oz9y-Eao4RSNxAG51v3Ak|15|Boyacá|5.401841|-73.33573799999999
15600|municipio|Ráquira|ChIJi9KZWIrSQY4RlMbBMbyDCTw|15|Boyacá|5.5382999|-73.632154
85279|municipio|Recetor|ChIJyTWGz37hao4R5n7sSdGd-4M|85|Casanare|5.2295489|-72.76065299999999
13580|municipio|Regidor|ChIJgzgC2JLdXY4RxJZ9lUIUflk|13|Bolívar|8.6846584|-73.86542949999999
05604|municipio|Remedios|ChIJwQfaeQxuQ44RDcgy6dLkBaM|05|Antioquia|7.0281273|-74.69360689999999
47605|municipio|Remolino|ChIJeS-gzni_9Y4RtFzBNXrXcks|47|Magdalena|10.6365585|-74.54632819999999
08606|municipio|Repelón|ChIJ727mFEwO9o4Rskcnm73L7lc|08|Atlántico|10.494762|-75.123706
50606|municipio|Restrepo|ChIJA3UX5IPTP44RiIuZVbCmEj0|50|Meta|4.263082|-73.562567
76606|municipio|Restrepo|ChIJm7p6_L5ZN44RCF6nqAkAlMs|76|Valle del Cauca|3.8234545|-76.5222552
05607|municipio|Retiro|ChIJW4cBi9iaRo4RsP9ZzScU-_Y|05|Antioquia|6.060955|-75.50258199999999
25612|municipio|Ricaurte|ChIJL3rc7NEnP44RRl3N80bQyQI|25|Cundinamarca|4.277309|-74.77230500000002
52612|municipio|Ricaurte|ChIJx2BkGYwGLI4RyPKLjOdhLYU|52|Nariño|1.1483351|-78.0651931
20614|municipio|Río de Oro|ChIJxY_zg7p8Z44RdByuMow5b4E|20|Cesar|8.294267|-73.387468
27580|municipio|Río Iró|ChIJQ4k3e9ELSI4RBYWGpnTbSPk|27|Chocó|5.169597802090158|-76.5054597600784
27600|municipio|Río Quito|ChIJF6ozNHBgSI4RRKSgPoyzNp8|27|Chocó|5.5380856|-76.7798172
13600|municipio|Río Viejo|ChIJi8Vty-LpXY4Raqee-djCgSA|13|Bolívar|8.588396999999999|-73.84025799999999
73616|municipio|Rioblanco|ChIJ-ThDyerTO44R4QtRmHWvuYU|73|Tolima|3.530079|-75.643671
76616|municipio|Riofrío|ChIJc1ddIszROY4Rxr6t6kRoVnE|76|Valle del Cauca|4.1563853|-76.2879158
44001|municipio|Riohacha|ChIJ2dCRUa5ii44R0ruzgaGgtLQ|44|La Guajira|11.5384151|-72.91678379999999
05615|municipio|Rionegro|ChIJyWvCEA-fRo4RxhawUvN9KXY|05|Antioquia|6.149018799999999|-75.3789523
68615|municipio|Rionegro|ChIJecyfWbcVaI4RNk-vOqXryts|68|Santander|7.265054999999999|-73.1504099
17614|municipio|Riosucio|ChIJmQGr_o8HR44R_m1pDStSSKU|17|Caldas|5.420683899999999|-75.705388
27615|municipio|Riosucio|ChIJ45wPMBbST44RlFVuf7ALGdg|27|Chocó|7.435361599999999|-77.1112624
17616|municipio|Risaralda|ChIJ0d80eYyeR44RjJ5oJwl-KTs|17|Caldas|5.163676|-75.76846200000001
41615|municipio|Rivera|ChIJ7zNdJRpsO44RrqniXQEgYuw|41|Huila|2.777781|-75.2594359
52621|municipio|Roberto Payán|ChIJc40rsQG0LY4RvjW7goTyKA8|52|Nariño|1.9088225|-78.3387066
76622|municipio|Roldanillo|ChIJARn4zxQ3OI4R7gJ--KET99s|76|Valle del Cauca|4.415473599999999|-76.1513942
73622|municipio|Roncesvalles|ChIJA4Q6yRAMOY4RcKyrJTmqkec|73|Tolima|4.0103171|-75.6048047
15621|municipio|Rondón|ChIJX0G63VyOao4RBo4Yvm4yyJY|15|Boyacá|5.3570209|-73.208421
19622|municipio|Rosas|ChIJvb2jSHPmL44R-qy0lw8NOk4|19|Cauca|2.261858|-76.7406139
73624|municipio|Rovira|ChIJrYdV4lEnOY4R2oJQgjPKvXQ|73|Tolima|4.2400403|-75.23944039999999
68655|municipio|Sabana de Torres|ChIJS8QGrSiqQo4RgCZT6vyS3-8|68|Santander|7.3919404|-73.49985
08634|municipio|Sabanagrande|ChIJSVu4f5LP9Y4RAjL7fN1NQuM|08|Atlántico|10.789771|-74.755201
05628|municipio|Sabanalarga|ChIJq_hE0Y-pRY4RFL7kFLhJWm0|05|Antioquia|6.8543086|-75.8133342
08638|municipio|Sabanalarga|ChIJC2e5ucrf9Y4RRO6fTCbrtD4|08|Atlántico|10.632409|-74.920163
85300|municipio|Sabanalarga|ChIJs2OtQyfLao4RsC8160Tz_Eo|85|Casanare|4.8541867|-73.03930299999999
47660|municipio|Sabanas de San Ángel|ChIJG1imfGCdX44R5oRoenYjz2g|47|Magdalena|10.0297699|-74.21531
05631|municipio|Sabaneta|ChIJE-IVrN6DRo4RjO2Xv2tq1tc|05|Antioquia|6.1504856|-75.61687859999999
15632|municipio|Saboyá|ChIJ8Qh8iV3GQY4R7l1CyAjxb8I|15|Boyacá|5.6855335|-73.77132
85315|municipio|Sácama|ChIJweqzyeTha44RZuIIurxMaIs|85|Casanare|6.098996|-72.248193
15638|municipio|Sáchica|ChIJI92G-aPWQY4RbgAlLB0aykA|15|Boyacá|5.583059|-73.542575
23660|municipio|Sahagún|ChIJn01kUdJjWY4RpgiPkOIPbm0|23|Córdoba|8.950643|-75.44600100000001
41660|municipio|Saladoblanco|ChIJDxCBVnETJY4R4sK9qSVaIkQ|41|Huila|1.993097|-76.04361399999999
17653|municipio|Salamina|ChIJcXSFcfMaR44Rbo9Wz5OcTmE|17|Caldas|5.402354|-75.486468
47675|municipio|Salamina|ChIJqUf2vNjo9Y4RtoUMUAE1Mvs|47|Magdalena|10.5354362|-74.7102958
54660|municipio|Salazar|ChIJ1-5c5NK3Z44R9P3CXZ8aKUA|54|Norte de Santander|7.7733885|-72.8094577
73671|municipio|Saldaña|ChIJzcQd1n9KOY4ROsX0D6ncyUY|73|Tolima|3.9286132|-75.0174814
63690|municipio|Salento|ChIJiXPbj7WNOI4RACA-k4gTnic|63|Quindío|4.637365|-75.5703107
05642|municipio|Salgar|ChIJq0QcUk5pRo4RAJVlSANziNo|05|Antioquia|5.963336|-75.963942
15646|municipio|Samacá|ChIJC6iZTrQqQI4R6kzkjmYwoMc|15|Boyacá|5.492342|-73.486159
17662|municipio|Samaná|ChIJK6fY6h8tR44RQGuUtr1fwu4|17|Caldas|5.413047|-74.99146390000001
52678|municipio|Samaniego|ChIJ7fCejia4Lo4RpC5S0MWOTqo|52|Nariño|1.332614|-77.58615499999999
70670|municipio|Sampués|ChIJr0KfaU9qWY4RwuVJHJzOGYw|70|Sucre|9.18357|-75.381105
41668|municipio|San Agustín|ChIJhbXvmZ5wJY4RVAkxc3nRggk|41|Huila|1.8799122|-76.2702092
20710|municipio|San Alberto|ChIJy-yStIv0Z44RTj4xqC6PEI0|20|Cesar|7.7636684|-73.3932117
05647|municipio|San Andrés de Cuerquía|ChIJGSSz9Kj_RI4RRNE2GBWN4PY|05|Antioquia|6.913245|-75.67555999999999
23670|municipio|San Andrés de Sotavento|ChIJdyadLRJuWY4RZzuU3M-GaVc|23|Córdoba|9.146742999999999|-75.509017
52835|municipio|San Andrés de Tumaco|ChIJoZ6QAfL9LI4R-nL0TrOlFcs|52|Nariño|1.787434|-78.791265
88001|isla|San Andrés|ChIJmYPJp-OlBY8R5QEkCQr65IM|88|Archipiélago de San Andrés, Providencia Y Santa Catalina|12.576855|-81.705052
68669|municipio|San Andrés|ChIJgVRjER1TaI4R4sKi0fQMNNk|68|Santander|6.811888|-72.848242
23672|municipio|San Antero|ChIJwz12ax2nWY4RIMRMKLMXCWM|23|Córdoba|9.374642|-75.758517
25645|municipio|San Antonio del Tequendama|ChIJDyS4hslzP44R3L77P9aZNi0|25|Cundinamarca|4.615942|-74.3519352
73675|municipio|San Antonio|ChIJoe-jguNsOY4RdjVuAkQUNNY|73|Tolima|3.914098999999999|-75.479861
70678|municipio|San Benito Abad|ChIJUYXqIk9UWY4RTgqwv0mqF6s|70|Sucre|8.9253134|-75.0143824
68673|municipio|San Benito|ChIJ5VIAep__QY4RIOl1C4l7T_k|68|Santander|6.1274259|-73.509401
23675|municipio|San Bernardo del Viento|ChIJua_OHYe7WY4R1g3u-GZLZlE|23|Córdoba|9.3525858|-75.9535815
25649|municipio|San Bernardo|ChIJpwawyzjjPo4RnMwPwszzS2c|25|Cundinamarca|4.179444|-74.421566
52685|municipio|San Bernardo|ChIJge7KHFIYL44RqDkFxWm97Gk|52|Nariño|1.5157523|-77.04617960000002
54670|municipio|San Calixto|ChIJ1ZK-bhVpZ44RWAkFLUqQmNU|54|Norte de Santander|8.4015989|-73.2089979
50680|municipio|San Carlos de Guaroa|ChIJ17jIZBDlFY4R8EJWJm5lCVk|50|Meta|3.7111377|-73.24201359999999
05649|municipio|San Carlos|ChIJJ3d-456qRo4RwE3lD30_bi4|05|Antioquia|6.187979|-74.99322699999999
23678|municipio|San Carlos|ChIJXzQmYznTW44Ria3BZrc8aTM|23|Córdoba|8.7946422|-75.6995195
25653|municipio|San Cayetano|ChIJxWynzAVbQI4RhMHIIbW1ToM|25|Cundinamarca|5.301222|-74.06970199999999
54673|municipio|San Cayetano|ChIJeeMk7CRMZo4RBMrRF6oG_CI|54|Norte de Santander|7.8774557|-72.6246902
1100104|localidad|San Cristóbal|ChIJyTEmr4yYP44RyEyAcrR7BTk|11001|Bogotá|4.5591989|-74.091471
13620|municipio|San Cristóbal|ChIJ6b9RCxkE9o4RyE9Bz-HTCMU|13|Bolívar|10.3672425|-75.07279559999999
20750|municipio|San Diego|ChIJxfwp_-4DYI4RsFliOwLGalM|20|Cesar|10.1596899|-73.3001233
15660|municipio|San Eduardo|ChIJA5s0Ykjrao4RsPz6hSFjn34|15|Boyacá|5.224586|-73.078446
13647|municipio|San Estanislao|ChIJxRaNBtQE9o4RXi2Xkv2S11I|13|Bolívar|10.3988318|-75.1491606
94883|área no municipalizada|San Felipe|ChIJqd1OhNFY_Y0RApAOIvfknXM|94|Guainía|2.3460967|-67.4754907
13650|municipio|San Fernando|ChIJMyzveULzXo4RrBs96BQkLgk|13|Bolívar|9.2210629|-74.3332796
05652|municipio|San Francisco|ChIJBcM21yOxRo4R5gzolOsc1nY|05|Antioquia|5.963152900000001|-75.1021849
25658|municipio|San Francisco|ChIJ84jexJSGQI4RiiYRiD4MBfk|25|Cundinamarca|4.9746739|-74.2890711
86755|municipio|San Francisco|ChIJK7AyuS7LKI4Rwt6Y6w87L8U|86|Putumayo|1.176194|-76.8756949
68679|municipio|San Gil|ChIJqezDFSfHaY4RAO5AZKD9O6A|68|Santander|6.554824|-73.13412
13655|municipio|San Jacinto del Cauca|ChIJIWAs_nVhXI4R7wpUGLqwYHw|13|Bolívar|8.2314212|-74.7337069
13654|municipio|San Jacinto|ChIJYdqtozHPWI4RTP0MT8hRxTk|13|Bolívar|9.8297142|-75.12294899999999
05656|municipio|San Jerónimo|ChIJmTOAy7nMRY4R0NiMLu3t5VU|05|Antioquia|6.442825699999999|-75.72776689999999
68682|municipio|San Joaquín|ChIJw65fjEOYaY4R8IHM3dglBHA|68|Santander|6.4617711|-72.8397317
54001|municipio|San José de Cúcuta|ChIJi9JdZJxFZo4Rqlzb9B9scyY|54|Norte de Santander|7.8890971|-72.4966896
05658|municipio|San José de La Montaña|ChIJoV9V6hNVRI4Rctc2vY_FjD4|05|Antioquia|6.849736|-75.684091
68684|municipio|San José de Miranda|ChIJmSkZBLapaY4RuqdvjMd_IJg|68|Santander|6.658705899999999|-72.73390220000002
15664|municipio|San José de Pare|ChIJnUsxGI78QY4RJqp81jJ0q8w|15|Boyacá|6.0183667|-73.5411771
70823|municipio|San José de Toluviejo|ChIJhx_s5ygaWY4RnKr1r_zcJf4|70|Sucre|9.452848999999999|-75.4391349
23682|municipio|San José de Uré|ChIJZ8X7lq4kW44ReHbF4Y_v-r8|23|Córdoba|7.787317900000001|-75.53590609999999
18610|municipio|San José del Fragua|ChIJJ2b9J7HEJY4Rhq0v1VFrBaQ|18|Caquetá|1.3315742|-75.9733147
95001|municipio|San José del Guaviare|ChIJTQKeqpl2F44RBIWK4HNVG6g|95|Guaviare|2.5677606|-72.6396535
27660|municipio|San José del Palmar|ChIJz97Ce8_5R44RQssPQdS_eQU|27|Chocó|4.97262|-76.22922
17665|municipio|San José|ChIJZYPEuauER44REpHBDzElArM|17|Caldas|5.073159899999999|-75.81271989999999
50683|municipio|San Juan de Arama|ChIJVbKUg3XBPY4R0DRwmpHSshE|50|Meta|3.34645|-73.88941
70702|municipio|San Juan de Betulia|ChIJhcf8BtQ4WY4R2Sgyql6xp5M|70|Sucre|9.2738751|-75.2419974
25662|municipio|San Juan de Rioseco|ChIJD5BNS7FfP44R8KqY1iUBMzU|25|Cundinamarca|4.846890999999999|-74.622303
05659|municipio|San Juan de Urabá|ChIJ62xX0iKmUI4R5YmOOAZ3bEs|05|Antioquia|8.7041784|-76.5257007
44650|municipio|San Juan del Cesar|ChIJRSrjUq3mio4RVGeOjMvf1mw|44|La Guajira|10.7732676|-73.00154210000001
13657|municipio|San Juan Nepomuceno|ChIJS1rShx60WI4RSP1GXM1RhXs|13|Bolívar|9.965816799999999|-75.1078332
50686|municipio|San Juanito|ChIJ9eGBDKDEP44RfI-hjj7wboc|50|Meta|4.457915|-73.6761889
52687|municipio|San Lorenzo|ChIJuyiwxz_gLo4R1MnackoT1Go|52|Nariño|1.503498|-77.21516690000001
15667|municipio|San Luis de Gaceno|ChIJP-VBw2hLFY4RLg3GNzkKsD0|15|Boyacá|4.8191575|-73.1691323
85325|municipio|San Luis de Palenque|ChIJM856FUeIbI4R1O8BgN1xqZg|85|Casanare|5.420281999999999|-71.73086099999999
70742|municipio|San Luis de Sincé|ChIJLxK5IvE3WY4RZW4Gd8vRU18|70|Sucre|9.2506566|-75.0844757
05660|municipio|San Luis|ChIJZUFAxGutRo4RZCRv-R7w0Ow|05|Antioquia|6.0432523|-74.99450449999999
73678|municipio|San Luis|ChIJn9W3dPcuOY4R8CseVGAiplA|73|Tolima|4.133543|-75.09508199999999
70708|municipio|San Marcos|ChIJoYmlF7jxW44RivjdkPesj9o|70|Sucre|8.663761|-75.13268289999999
13667|municipio|San Martín de Loba|ChIJj3r97g56Xo4RtxGwQg4JWtc|13|Bolívar|8.9397308|-74.03901979999999
20770|municipio|San Martín|ChIJ8fO0-QljXY4RYCRVK597SWw|20|Cesar|7.929618|-73.5122928
50689|municipio|San Martín|ChIJ3ZQkvB0PPo4RoAPPs_vlFGM|50|Meta|3.698492|-73.697308
15673|municipio|San Mateo|ChIJ2QS-9fdyaY4R-i3sUHUNliE|15|Boyacá|6.402012999999999|-72.5546339
15676|municipio|San Miguel de Sema|ChIJvd826cDMQY4RCtNeo_BEHQo|15|Boyacá|5.5182663|-73.7215319
86757|municipio|San Miguel|ChIJC8kOYik_KY4RytmNKX_AtKo|86|Putumayo|0.33002|-76.87635999999999
68686|municipio|San Miguel|ChIJt_14LuQIaY4R1hGQI2Uy-WQ|68|Santander|6.576243|-72.6452997
70713|municipio|San Onofre|ChIJ2wknBDPlWI4RkmrOKnWiTgQ|70|Sucre|9.74084|-75.519872
15681|municipio|San Pablo de Borbur|ChIJW-7hIZqvQY4RhSf7wejAZTw|15|Boyacá|5.658618|-74.066734
13670|municipio|San Pablo|ChIJT3htLkzLQo4R_n_QZDZEL8k|13|Bolívar|7.477887|-73.92410799999999
52693|municipio|San Pablo|ChIJB0nRTH4FL44RXgvKSllWBbw|52|Nariño|1.6690825|-77.0119996
52694|municipio|San Pedro de Cartago|ChIJ76ReX7seL44RkbcH3wX5DL8|52|Nariño|1.5529173|-77.1202812
05664|municipio|San Pedro de Los Milagros|ChIJiUAQwTY3RI4RmNyFoDw4Dto|05|Antioquia|6.4596141|-75.5597386
05665|municipio|San Pedro de Urabá|ChIJNQw1oG5-Wo4RQwlViX307Tc|05|Antioquia|8.2772778|-76.3795696
70717|municipio|San Pedro|ChIJnQXWvP8xWY4RzFneqYvWI_o|70|Sucre|9.393723|-75.06400800000002
76670|municipio|San Pedro|ChIJ36DNkfbCOY4R0qoDAqFn5RQ|76|Valle del Cauca|3.99411|-76.22711
23686|municipio|San Pelayo|ChIJSctujB2HWY4RwFm6zhupeq8|23|Córdoba|8.9581922|-75.8381647
05667|municipio|San Rafael|ChIJw6daL-gGRI4RkkfZwk3ZCW4|05|Antioquia|6.2951219|-75.0278664
05670|municipio|San Roque|ChIJtTYgUAELRI4REpfmpcyemo4|05|Antioquia|6.485831|-75.019623
47692|municipio|San Sebastián de Buenavista|ChIJLZSf9RdYXo4RfD0Lx66s8CM|47|Magdalena|9.2389289|-74.3500155
73443|municipio|San Sebastián de Mariquita|ChIJKwmITu21QI4R8kjk-yCSHEY|73|Tolima|5.199504999999999|-74.88683499999999
19693|municipio|San Sebastián|ChIJ6w5cMeaeL44RrKPj7sDbki0|19|Cauca|1.839041|-76.7697981
68689|municipio|San Vicente de Chucurí|ChIJjZQAe9YraI4R6DPaNrrgkjo|68|Santander|6.8796689|-73.41020189999999
18753|municipio|San Vicente del Caguán|ChIJ8TF-WS9DI44RrOiI03dR76o|18|Caquetá|2.1136446|-74.7732056
05674|municipio|San Vicente Ferrer|ChIJO2090lIfRI4R4s-E4vVNlc0|05|Antioquia|6.285814999999999|-75.33422
47703|municipio|San Zenón|ChIJG2W23YnwXo4R2OVmjv72rC8|47|Magdalena|9.244883500000002|-74.4984504
52683|municipio|Sandoná|ChIJIUy14x7PLo4RItwbgzu-m-8|52|Nariño|1.2865671|-77.4587239
47707|municipio|Santa Ana|ChIJc5wVDsfpXo4RBpkGrkltGkg|47|Magdalena|9.322961|-74.570544
47720|municipio|Santa Bárbara de Pinto|ChIJ-ympPJjbXo4RSAvVeivKuOM|47|Magdalena|9.43234|-74.70492999999999
05679|municipio|Santa Bárbara|ChIJkcWJ4NPyRo4RdO3YEGB7SZA|05|Antioquia|5.874190899999999|-75.5674243
52696|municipio|Santa Bárbara|ChIJg6AwHAQBMo4RhBIGBgBeOxM|52|Nariño|2.4505212|-77.98026930000002
68705|municipio|Santa Bárbara|ChIJHxbySNZEaI4R7JNCXW4Grag|68|Santander|6.990524|-72.90668099999999
13673|municipio|Santa Catalina|ChIJOYeJ2uYU9o4RxnQjdoZttSE|13|Bolívar|10.6050059|-75.2885082
13468|municipio|Santa Cruz de Mompox|ChIJiSfg63PtXo4RkjYgR-gbJ-8|13|Bolívar|9.239654699999999|-74.4254445
05042|municipio|Santa Fé de Antioquia|ChIJlfVzhxe2RY4RIuNCA4oS7dc|05|Antioquia|6.5592991|-75.82553999999999
1100103|localidad|Santa Fé|ChIJaU8k9SSaP44RoS6Stp4wY8g|11001|Bogotá|4.6121433|-74.0708166
68720|municipio|Santa Helena del Opón|ChIJabuIfKMPQo4RVxoXpNnXLBE|68|Santander|6.3394597|-73.61638429999999
73686|municipio|Santa Isabel|ChIJOXWVvsixOI4RSsd8UxudanA|73|Tolima|4.713973999999999|-75.0972892
08675|municipio|Santa Lucía|ChIJV__W1iP-9Y4RyBcrz3b3zNA|08|Atlántico|10.3255689|-74.9610537
15690|municipio|Santa María|ChIJuzxOfbuyao4Rsvnkf8A-Jic|15|Boyacá|4.857988|-73.262355
41676|municipio|Santa María|ChIJLQWScJIGO44R64D7xoCsw0M|41|Huila|2.939062|-75.58638599999999
47001|municipio|Santa Marta|ChIJPRea9W_29I4RuPk6FfyVSxI|47|Magdalena|11.2403547|-74.2110227
66682|municipio|Santa Rosa de Cabal|ChIJn1p_nICBOI4RtvLbnR0GSSg|66|Risaralda|4.870121|-75.62239
05686|municipio|Santa Rosa de Osos|ChIJq3TAKUNERI4RBv2O8R_KxW0|05|Antioquia|6.6470033|-75.46044970000001
15693|municipio|Santa Rosa de Viterbo|ChIJzYsmtWE5ao4RmoqDzsU9Ivo|15|Boyacá|5.8741303|-72.9828697
13688|municipio|Santa Rosa del Sur|ChIJRQJg7ZIaXY4RODMr-6DoZmM|13|Bolívar|7.9630638|-74.05097479999999
13683|municipio|Santa Rosa|ChIJYQSsFcYi9o4RVl4R-Q5Bmic|13|Bolívar|10.445791|-75.368501
19701|municipio|Santa Rosa|ChIJuU-uozx5L44Rpj7D7qa4rJQ|19|Cauca|1.5545713|-76.5488232
99624|municipio|Santa Rosalía|ChIJ7749VP8UbY4RalqucaY9L-Y|99|Vichada|5.135381|-70.86496090000001
15696|municipio|Santa Sofía|ChIJ2RX9XqbbQY4RGkQFb0tHZo8|15|Boyacá|5.713960999999999|-73.602068
52699|municipio|Santacruz|ChIJmx9OuvzgLo4RbqD2Vuokslc|52|Nariño|1.51723|-77.25113999999999
15686|municipio|Santana|ChIJwa2RIuT9QY4Rhp6_awT2YLI|15|Boyacá|6.057239999999999|-73.48223
19698|municipio|Santander de Quilichao|ChIJTdm6MNl_MI4R0t3PuGvGJ3s|19|Cauca|3.0090132|-76.48630469999999
70820|municipio|Santiago de Tolú|ChIJIRHcoHQDWY4Ri13KHTepy2I|70|Sucre|9.527477000000001|-75.5812215
54680|municipio|Santiago|ChIJuY-_wVGzZ44Reui2PoXAQ-k|54|Norte de Santander|7.864144999999999|-72.717692
86760|municipio|Santiago|ChIJ-TZjJXnNKI4R4i3A2t_MTgw|86|Putumayo|1.147148|-77.002405
05690|municipio|Santo Domingo|ChIJXV-buHESRI4RjLugKjwHhsQ|05|Antioquia|6.4714987|-75.1644735
08685|municipio|Santo Tomás|ChIJoX3SeWrF9Y4Rgr1Ms7nr6s8|08|Atlántico|10.763286|-74.75649899999999
66687|municipio|Santuario|ChIJMcp_s9iRR44RUol4jJGN5e0|66|Risaralda|5.072997600000001|-75.9634386
52720|municipio|Sapuyes|ChIJlQMn25xIKY4RbnH92LyWg3Q|52|Nariño|1.0371516|-77.62174569999999
81736|municipio|Saravena|ChIJW6YDicszb44RMNhS8_WrXuo|81|Arauca|6.956106999999999|-71.87259499999999
54720|municipio|Sardinata|ChIJ0ZKQwyaqZ44RGNKRNu2Vatg|54|Norte de Santander|8.085092|-72.799937
25718|municipio|Sasaima|ChIJPQ8tcWabQI4RhD9iv46mpH8|25|Cundinamarca|4.964421400000001|-74.4346405
15720|municipio|Sativanorte|ChIJ33RO8fd_aY4RTu3a9_swWrE|15|Boyacá|6.131747499999999|-72.7078271
15723|municipio|Sativasur|ChIJY7-oWMwqao4RPuYKKkuXQ-s|15|Boyacá|6.0933166|-72.71259289999999
05736|municipio|Segovia|ChIJ91ddArtuQ44R0hC3Nt9PFmA|05|Antioquia|7.079743499999999|-74.7004374
25736|municipio|Sesquilé|ChIJQXKKz_USQI4R9LPHaIDgjx4|25|Cundinamarca|5.0445905|-73.7967966
76736|municipio|Sevilla|ChIJjVns7zBNOI4R_B1P62x1XhY|76|Valle del Cauca|4.2743779|-75.931004
15740|municipio|Siachoque|ChIJS__ute1iao4R6MK_aBLspDk|15|Boyacá|5.511608|-73.244834
25740|municipio|Sibaté|ChIJ9fDeijUKP44R3KxsO1cbv-s|25|Cundinamarca|4.491196|-74.2593771
86749|municipio|Sibundoy|ChIJITlluJ00L44RjpV1Zit4-qk|86|Putumayo|1.2046|-76.9194897
54743|municipio|Silos|ChIJexdUycxjaI4RWFH_w0ngynw|54|Norte de Santander|7.2044684|-72.7571112
25743|municipio|Silvania|ChIJAXt2dfIPP44RGLtuXWr_CyM|25|Cundinamarca|4.3867287|-74.3994432
19743|municipio|Silvia|ChIJe57sTrqmOo4RbNhNoEuB5eQ|19|Cauca|2.611615|-76.37754
68745|municipio|Simacota|ChIJnQ9AHhLnaY4R0HVhR17ZazM|68|Santander|6.443588|-73.33753399999999
25745|municipio|Simijaca|ChIJ7aduC61KQI4RlGof7MeEiC0|25|Cundinamarca|5.503838|-73.85197099999999
13744|municipio|Simití|ChIJceLdCoURXY4Rusv3KBVZ94Q|13|Bolívar|7.957151|-73.946404
70001|municipio|Sincelejo|ChIJVykXQUgUWY4RNFOe93u4tdQ|70|Sucre|9.3045773|-75.39055669999999
27745|municipio|Sipí|ChIJEyb4U4jtN44RheSJic6RfKA|27|Chocó|4.65306|-76.64417
47745|municipio|Sitionuevo|ChIJM8beoP3K9Y4R0sPj_EKu_lM|47|Magdalena|10.7766068|-74.7209025
25754|municipio|Soacha|ChIJA1TDDH11P44RhI59ucoY0Z4|25|Cundinamarca|4.5827227|-74.21174649999999
15753|municipio|Soatá|ChIJAWuDPkZ2aY4RXv1GRAT1LNc|15|Boyacá|6.3337221|-72.6829015
15757|municipio|Socha|ChIJK_gPU9_Sa44RwJZ-bfBg30U|15|Boyacá|5.997129999999999|-72.692665
68755|municipio|Socorro|ChIJB4AsiqbCaY4R-D7OKKXTIro|68|Santander|6.468665|-73.26404099999999
15755|municipio|Socotá|ChIJq-xJZQvUa44RLMOQAPF5Q48|15|Boyacá|6.041520999999999|-72.636498
15759|municipio|Sogamoso|ChIJ69O1p9hFao4RPj-sIrwjges|15|Boyacá|5.7160848|-72.93112889999999
18756|municipio|Solano|ChIJ11JEyrL1H44Rfil7gmhVgZA|18|Caquetá|0.1428891|-72.8988069
08758|municipio|Soledad|ChIJFRrH23DN9Y4R4q-FbDcU8K8|08|Atlántico|10.9171191|-74.79915059999999
18785|municipio|Solita|ChIJjcjA2MX0Jo4RTjzVGMZBx70|18|Caquetá|0.9330824000000001|-75.6906241
15761|municipio|Somondoco|ChIJqzlmnUSoao4RZIY6dxYP9rY|15|Boyacá|4.985763|-73.43302
05756|municipio|Sonsón|ChIJs72SkczCRo4Rcvs23Ap31yk|05|Antioquia|5.712002|-75.309798
05761|municipio|Sopetrán|ChIJCSQuCR7LRY4RlnrAWypGvLo|05|Antioquia|6.501533999999999|-75.743398
13760|municipio|Soplaviento|ChIJv2OCkMME9o4RTImU81YTJPk|13|Bolívar|10.3902006|-75.1397369
25758|municipio|Sopó|ChIJzxjTYIF2QI4RXMWNAg0nBUg|25|Cundinamarca|4.9086113|-73.9414489
15762|municipio|Sora|ChIJh0jSFE9_ao4R5pZD9bZ0Vkk|15|Boyacá|5.566838|-73.45009499999999
15764|municipio|Soracá|ChIJJ6nBKYV9ao4RnD8XMXHsCpA|15|Boyacá|5.5007074|-73.3329194
15763|municipio|Sotaquirá|ChIJk2367qNtao4RjPQfAl1-YYU|15|Boyacá|5.765597199999999|-73.2473838
19760|municipio|Sotará Paispamba|ChIJb4yFLL76L44RAmAN7w8DfWw|19|Cauca|2.255257|-76.61409499999999
68770|municipio|Suaita|ChIJObdp6GEAao4R4BsHZMnh1Ak|68|Santander|6.120668299999999|-73.3472901
08770|municipio|Suan|ChIJkbYvErH-9Y4R9nT7F0kFGZ4|08|Atlántico|10.3332714|-74.8800565
19780|municipio|Suárez|ChIJC0YTyp5jMI4R4AAp4FzwIgU|19|Cauca|2.9532079|-76.6937039
73770|municipio|Suárez|ChIJcwzU4FXOPo4R0iOEj-I65LM|73|Tolima|4.047626|-74.83187199999999
41770|municipio|Suaza|ChIJnwXawm8cJY4RrlPyO84BqUc|41|Huila|1.9769565|-75.7950396
1100111|localidad|Suba|ChIJFwRwnVCEP44RFE_5QOlpzcc|11001|Bogotá|4.7207926|-74.07476799999999
25769|municipio|Subachoque|ChIJ9fz0DmB-QI4RLlxP6Ag_rD8|25|Cundinamarca|4.929001|-74.172465
19785|municipio|Sucre|ChIJ78JEv0m_L44RbCoDqToIlTY|19|Cauca|2.038267|-76.9254349
68773|municipio|Sucre|ChIJsUhN-XzsQY4RVGXMA22AIAs|68|Santander|5.9183369|-73.79165979999999
70771|municipio|Sucre|ChIJnfY9FUMcXI4RBCJzdqYWSWk|70|Sucre|8.8138062|-74.7224765
25772|municipio|Suesca|ChIJp6BtoIEUQI4RymoXm_e9yo0|25|Cundinamarca|5.103929|-73.798632
1100120|localidad|Sumapaz|ChIJb2LcfRWZP44RXJ2Mql7a8VM|11001|Bogotá|4.5983024|-74.06878259999999
25777|municipio|Supatá|ChIJAXUaYDeIQI4Riv6ou7YekRo|25|Cundinamarca|5.061607|-74.235546
17777|municipio|Supía|ChIJsSxSqcYGR44RMDD_E4IOQ1o|17|Caldas|5.45589|-75.65040100000002
68780|municipio|Suratá|ChIJuZCtCK12aI4RTmJ5F88xc9s|68|Santander|7.366515|-72.983983
25779|municipio|Susa|ChIJdyeOwLw1QI4RSt_79eu-tAQ|25|Cundinamarca|5.453826299999999|-73.8137501
15774|municipio|Susacón|ChIJV09ibJJ4aY4R1P_r0oRyLDA|15|Boyacá|6.2307846|-72.6897657
15776|municipio|Sutamarchán|ChIJwbg3zrLRQY4R9ELNI-gIsdc|15|Boyacá|5.620003|-73.620936
25781|municipio|Sutatausa|ChIJDTDWVLtAQI4RcAB8aRDxGzU|25|Cundinamarca|5.247294999999999|-73.852667
15778|municipio|Sutatenza|ChIJedM0vu-nao4RBaSfvXrP-i4|15|Boyacá|5.022107699999999|-73.4531168
25785|municipio|Tabio|ChIJZculPxh5QI4R6ro6zER6CSA|25|Cundinamarca|4.916962|-74.096358
27787|municipio|Tadó|ChIJG2GWsF1zSI4R5Kh-vxkZ2DY|27|Chocó|5.2649419|-76.55943300000001
13780|municipio|Talaigua Nuevo|ChIJy31TWI3pXo4RMrD1LspBXF4|13|Bolívar|9.303469000000002|-74.567972
20787|municipio|Tamalameque|ChIJRWfXLeoKXo4RDhehKwp4YZM|20|Cesar|8.861748|-73.810756
85400|municipio|Támara|ChIJo_RYg5fta44RImwP7xTKKBY|85|Casanare|5.83034|-72.163056
81794|municipio|Tame|ChIJy3a_AU_Gbo4ROt215-oQWOw|81|Arauca|6.4586679|-71.73477369999999
05789|municipio|Támesis|ChIJ3cXDlZ34Ro4RAoP9gHWRmBA|05|Antioquia|5.664999|-75.714701
52786|municipio|Taminango|ChIJ8eBCxe7jLo4RkudZ5o_TYl8|52|Nariño|1.5782999|-77.3094674
52788|municipio|Tangua|ChIJhw_1q-4xKY4RJF0L2KaabPs|52|Nariño|1.0950573|-77.3939558
97666|municipio|Taraira|ChIJOeX0g9qq_ZER1K_vby5MDnQ|97|Vaupés|-0.5644218999999999|-69.63385339999999
91798|área no municipalizada|Tarapacá|ChIJgxw4oZxq8JERZIbqfvHmNa8|91|Amazonas|-2.4589895|-69.8597406
05790|municipio|Tarazá|ChIJf0hbilc0W44R-p_m2mBoorU|05|Antioquia|7.583190999999999|-75.39996599999999
41791|municipio|Tarqui|ChIJRUvPGjQiJY4RJmkJ_pK7CDY|41|Huila|2.1131628|-75.8251059
05792|municipio|Tarso|ChIJXYG4tuldRo4RhpdEkS4f1sY|05|Antioquia|5.864924999999999|-75.82240300000001
15790|municipio|Tasco|ChIJ9Q7l4sczao4RRFGLldO03UU|15|Boyacá|5.909396|-72.78081
85410|municipio|Tauramena|ChIJGfVca0nYao4Ramhgcogmwrc|85|Casanare|5.010684899999999|-72.750495
25793|municipio|Tausa|ChIJ11Q-JDNAQI4RLNL4fRE-1Qs|25|Cundinamarca|5.196181999999999|-73.8865409
41799|municipio|Tello|ChIJS6Ft31uDO44R2qsqO-69ODw|41|Huila|3.0673499|-75.1381059
25797|municipio|Tena|ChIJkTOFEZlxP44RVZust3dm6GQ|25|Cundinamarca|4.6634712|-74.370477
47798|municipio|Tenerife|ChIJj9AllBo2X44R8EOg_amydK4|47|Magdalena|9.898413|-74.858425
25799|municipio|Tenjo|ChIJl_HrkF5_QI4R6ioGposnAIc|25|Cundinamarca|4.872476|-74.14576989999999
15798|municipio|Tenza|ChIJH3jM3Canao4RMJFd89Vp_sM|15|Boyacá|5.077311|-73.421476
54800|municipio|Teorama|ChIJU__KF9BnZ44RDjmd0lg3IhE|54|Norte de Santander|8.437521|-73.2869429
41801|municipio|Teruel|ChIJh5kzCqQZO44ReDW5xNJ63ck|41|Huila|2.741117|-75.56850299999999
41797|municipio|Tesalia|ChIJOzGnwtEnO44RkM7RlK9P2XY|41|Huila|2.5185532|-75.6906241
1100113|localidad|Teusaquillo|ChIJN3NkpeqbP44RWZMQLjdYo28|11001|Bogotá|4.642276499999999|-74.0907071
25805|municipio|Tibacuy|ChIJHX8iGagbP44Rlg8-u04dVHI|25|Cundinamarca|4.347837|-74.45254
15804|municipio|Tibaná|ChIJ2cfBPMecao4RQkAceuf4edM|15|Boyacá|5.316775|-73.397943
15806|municipio|Tibasosa|ChIJy2cD8DtBao4RsgWxq8br5Fs|15|Boyacá|5.747042|-72.9996755
25807|municipio|Tibirita|ChIJy3Bw4akdQI4RGFMwmb-X3Zw|25|Cundinamarca|5.0526373|-73.5054057
54810|municipio|Tibú|ChIJSfp-lEAoZ44RqAiMX4pqFtQ|54|Norte de Santander|8.642356|-72.73773299999999
23807|municipio|Tierralta|ChIJDWQX1JT0Wo4RrrkKCY46WtY|23|Córdoba|8.171571|-76.062313
41807|municipio|Timaná|ChIJI9_zTPAQJY4RaF7bLFM7BdM|41|Huila|1.974415|-75.932847
19807|municipio|Timbío|ChIJ2cRncQTjL44RjuT46yVkef0|19|Cauca|2.352686|-76.683352
19809|municipio|Timbiquí|ChIJz4nIW42TMY4RKkEBvV-vHgc|19|Cauca|2.777744|-77.66760599999999
15808|municipio|Tinjacá|ChIJNSZSIgLSQY4RJOaNWjThenU|15|Boyacá|5.578688|-73.64719
15810|municipio|Tipacoque|ChIJAwRXqm51aY4RWMaGDxBqK6s|15|Boyacá|6.420758999999999|-72.691054
13810|municipio|Tiquisio|ChIJVX6tS_80XI4RBL73vnHkP4g|13|Bolívar|8.5555864|-74.26470429999999
05809|municipio|Titiribí|ChIJccqJbLt8Ro4RdL2v00CRNMc|05|Antioquia|6.063323800000001|-75.793768
15814|municipio|Toca|ChIJCeYaNv5jao4RZjtgwfTyFPo|15|Boyacá|5.566401|-73.185051
25815|municipio|Tocaima|ChIJsfpii7U9P44RYA6B72RWa4g|25|Cundinamarca|4.4585294|-74.6368449
25817|municipio|Tocancipá|ChIJlcruX8BzQI4RFD674GdQVSU|25|Cundinamarca|4.965937299999999|-73.9130599
15816|municipio|Togüí|ChIJa1urQAspQI4RgzKQC1aDz9s|15|Boyacá|5.3906|-73.51673000000001
05819|municipio|Toledo|ChIJbSB1S3z9RI4RIt6kpp9pWls|05|Antioquia|7.011153699999999|-75.70225669999999
54820|municipio|Toledo|ChIJScWTkQSbaI4RZmvoe2oFFZI|54|Norte de Santander|7.309089999999999|-72.4811763
68820|municipio|Tona|ChIJc6HNxMtuaI4RRlwPiO1TFRo|68|Santander|7.201829999999999|-72.966757
15820|municipio|Tópaga|ChIJoY-7SaNJao4RgjjDJBLIsb8|15|Boyacá|5.7685553|-72.83244859999999
25823|municipio|Topaipí|ChIJk08gz0n3QI4Rincss1nZjs0|25|Cundinamarca|5.335775000000001|-74.301474
19821|municipio|Toribío|ChIJ-XTxYZ6IOo4RjhfhEr-IQkg|19|Cauca|2.9562909|-76.2704
76823|municipio|Toro|ChIJlS04x8lqOI4RiKWYFe6BQj8|76|Valle del Cauca|4.609179699999999|-76.0785289
15822|municipio|Tota|ChIJd6xYIlZZao4RNgADaqMtM7s|15|Boyacá|5.560332|-72.985939
19824|municipio|Totoró|ChIJ0_7NUPyoOo4R-MUbsxcHgbI|19|Cauca|2.509941|-76.40173
85430|municipio|Trinidad|ChIJQQ172CiKbI4RGCfupWHKtdU|85|Casanare|5.4077975|-71.6613672
76828|municipio|Trujillo|ChIJb8mKk8rTOY4RcFjv8zGEHcY|76|Valle del Cauca|4.211646|-76.3187681
08832|municipio|Tubará|ChIJj6rrEq149o4RgFEe2l7FwZU|08|Atlántico|10.872762|-74.97735399999999
23815|municipio|Tuchín|ChIJC-oUBkFyWY4RuL6gvciho5o|23|Córdoba|9.18719|-75.55416
76834|municipio|Tuluá|ChIJDZlhx8bFOY4RQl5C7uW0kUs|76|Valle del Cauca|4.089869|-76.1914991
15001|municipio|Tunja|ChIJW7p_iS58ao4RjKaaa37an6w|15|Boyacá|5.5446422|-73.3575572
1100106|localidad|Tunjuelito|ChIJKyHw51afP44RlL4iA4jg4as|11001|Bogotá|4.5867775|-74.1444068
15832|municipio|Tununguá|ChIJKwIpiGC5QY4RGjQtUhWnqgc|15|Boyacá|5.7304983|-73.93341029999999
52838|municipio|Túquerres|ChIJx0ADshNJKY4Rapmt60pTB70|52|Nariño|1.085739|-77.618641
13836|municipio|Turbaco|ChIJPwGpL-Ag9o4RvDJYm4nFCR8|13|Bolívar|10.334638|-75.412672
13838|municipio|Turbana|ChIJWXxu-OSdWI4Rdslc_FTcsWs|13|Bolívar|10.2731618|-75.4430893
05837|municipio|Turbo|ChIJsxZQ1vhlUI4RmtoI6uL1dpY|05|Antioquia|8.0951588|-76.7284559
15835|municipio|Turmequé|ChIJCR2R6MInQI4Rvri_DVwBaoE|15|Boyacá|5.3246521|-73.49053339999999
15837|municipio|Tuta|ChIJbfuWGQBvao4RKDF_5C4lm78|15|Boyacá|5.690539299999999|-73.22780829999999
15839|municipio|Tutazá|ChIJeSmjT-Uoao4Rum9N2m4J5wY|15|Boyacá|6.0321017|-72.8564105
25839|municipio|Ubalá|ChIJJxhf0EL8P44Rposkx9_x-ms|25|Cundinamarca|4.743647|-73.534989
25841|municipio|Ubaque|ChIJD6CvaKC-P44RrvVaVq1OSBQ|25|Cundinamarca|4.4837583|-73.933775
76845|municipio|Ulloa|ChIJ03tnHmBiOI4RVPRtUhS64Lc|76|Valle del Cauca|4.7030365|-75.73773709999999
15842|municipio|Úmbita|ChIJ06L_cC-eao4RKsKUy_LtaU0|15|Boyacá|5.22138|-73.45687
25845|municipio|Une|ChIJA4FuNrS6P44RLm5DHXGrBtE|25|Cundinamarca|4.402585|-74.025384
27800|municipio|Unguía|ChIJcbxQrJlOUI4R1pbcALpG-AU|27|Chocó|8.041038799999999|-77.093099
27810|municipio|Unión Panamericana|ChIJEVLOc4xtSI4R98A2kTXiHmg|27|Chocó|5.30648|-76.64542999999999
05842|municipio|Uramita|ChIJE1yCoON1RY4RuJCvzFvAq1o|05|Antioquia|6.899406|-76.17451489999999
50370|municipio|Uribe|ChIJz_xuSRxJPI4RDsjPeyk_ZMM|50|Meta|3.239241|-74.350661
44847|municipio|Uribia|ChIJg_ZXejcSjI4Rfe6BH2SFgxI|44|La Guajira|11.7149978|-72.26593910000001
05847|municipio|Urrao|ChIJLc9LJNjmRY4R5Cv5eEPAWb0|05|Antioquia|6.313860999999999|-76.13181
44855|municipio|Urumita|ChIJO-Oq3pjrio4RjghZ4uVu9UI|44|La Guajira|10.5599284|-73.0128802
1100101|localidad|Usaquén|ChIJ61tOXYCPP44Rb3xHQhxhUwg|11001|Bogotá|4.703336699999999|-74.0328803
08849|municipio|Usiacurí|ChIJDYtuxC129o4RrGMFGfmJpYg|08|Atlántico|10.7428425|-74.9783369
1100105|localidad|Usme|ChIJt9qBZPmjP44R4KJ7vKBwMqQ|11001|Bogotá|4.508056|-74.1140039
25851|municipio|Útica|ChIJWQciIEaTQI4R-iQyPk7_CLk|25|Cundinamarca|5.187954899999999|-74.4807091
05854|municipio|Valdivia|ChIJSXgFa4HpRI4R_h30qywAYkw|05|Antioquia|7.163592|-75.43898999999999
23855|municipio|Valencia|ChIJ_a9cHrhhWo4RGUE6vEVSTjQ|23|Córdoba|8.2009388|-76.2247366
68855|municipio|Valle de San José|ChIJg7ndk-nqaY4R1Mc9h6qRD20|68|Santander|6.4403136|-73.111356
73854|municipio|Valle de San Juan|ChIJW3JSpOUoOY4RfEls_tccYmQ|73|Tolima|4.1975421|-75.1164436
86865|municipio|Valle del Guamuez|ChIJXeMcGT1DKI4RfKXYEXDcUTc|86|Putumayo|0.4015861|-76.7798172
20001|municipio|Valledupar|ChIJ13HP1rW5io4RSiNMsSU2pIQ|20|Cesar|10.4742449|-73.2436335
05856|municipio|Valparaíso|ChIJZR8npKH-Ro4R4BD9mdkAg0g|05|Antioquia|5.615870399999999|-75.6245768
18860|municipio|Valparaíso|ChIJB79-cckqJI4RJpBJijPN6YU|18|Caquetá|1.1951639|-75.70532399999999
05858|municipio|Vegachí|ChIJP4RqhVyDQ44RftMwy0TIXNQ|05|Antioquia|6.772879|-74.796476
68861|municipio|Velez|ChIJycRs8GvwQY4RJJJJu2ao7oE|68|Santander|6.0097678|-73.6719684
73861|municipio|Venadillo|ChIJOTbEtHtNP44RzmGF0wdwy9w|73|Tolima|4.714815|-74.931161
05861|municipio|Venecia|ChIJlx_InfVhRo4RkhviQPdaRQU|05|Antioquia|5.963962|-75.735417
25506|municipio|Venecia|ChIJl7SFhPLlPo4ReKHNmeyFjaU|25|Cundinamarca|4.089014|-74.4779102
15861|municipio|Ventaquemada|ChIJ6VnU9fooQI4R5la5up4AdJw|15|Boyacá|5.3667212|-73.52096519999999
25862|municipio|Vergara|ChIJNaKjcCaMQI4RFPhQ3k4mDRY|25|Cundinamarca|5.118232|-74.34495299999999
76863|municipio|Versalles|ChIJde35Veo9OI4R1rBP90wyXSk|76|Valle del Cauca|4.575712|-76.19952099999999
68867|municipio|Vetas|ChIJp-smNER6aI4RlIX1pQFqhf4|68|Santander|7.333369999999999|-72.86667
25867|municipio|Vianí|ChIJmQl-liZgP44RMOSRW8NzR4k|25|Cundinamarca|4.875749|-74.56051699999999
17867|municipio|Victoria|ChIJlY_MoVvMQI4RkqUM6BOLYB8|17|Caldas|5.3170865|-74.9116514
05873|municipio|Vigía del Fuerte|ChIJU-pzmesVT44R_PZ1AaBNu7A|05|Antioquia|6.588654099999999|-76.896277
76869|municipio|Vijes|ChIJgSuQSBb-OY4R_ipthgUIC08|76|Valle del Cauca|3.699852599999999|-76.44261259999999
54871|municipio|Villa Caro|ChIJrUfUVHK7Z44RitjYvRPsOKY|54|Norte de Santander|7.914824599999999|-72.9730163
15407|municipio|Villa de Leyva|ChIJGaF4PA7XQY4R3ZMRZnhrRGM|15|Boyacá|5.636499|-73.527058
25843|municipio|Villa de San Diego de Ubaté|ChIJo37kn144QI4REKH6UYSM91I|25|Cundinamarca|5.3059954|-73.8148875
54874|municipio|Villa del Rosario|ChIJ380Ls2JGZo4RTg4X2ABIrcU|54|Norte de Santander|7.8437879|-72.46968970000002
19845|municipio|Villa Rica|ChIJq9pa61udMI4RiKWJDnLWChE|19|Cauca|3.1778751|-76.4678766
86885|municipio|Villagarzón|ChIJ-RADe4qvKI4R3jgxWs7qirA|86|Putumayo|1.028507|-76.617431
25871|municipio|Villagómez|ChIJz5EMerVYQI4RDGw2lZd6huI|25|Cundinamarca|5.2733|-74.19516899999999
73870|municipio|Villahermosa|ChIJtaP00klQR44RhhfKDsxLF4M|73|Tolima|5.029564|-75.1168256
17873|municipio|Villamaría|ChIJoZPohEZlR44RNGjv_lJF3-E|17|Caldas|5.0462207|-75.5113908
13873|municipio|Villanueva|ChIJ0XONqd0Z9o4RfoDW1P57sWE|13|Bolívar|10.4442705|-75.2747055
85440|municipio|Villanueva|ChIJ3wN7wWU7FY4RgGzDNsd5hOI|85|Casanare|4.611251999999999|-72.92812599999999
44874|municipio|Villanueva|ChIJQdQeu6Xuio4R4p1DOcOnQ24|44|La Guajira|10.603721|-72.98193599999999
68872|municipio|Villanueva|ChIJXf69BCnJaY4RZrsucyt7K-w|68|Santander|6.6708824|-73.1748355
25873|municipio|Villapinzón|ChIJxT_IzVIiQI4R7h76hDgZGZg|25|Cundinamarca|5.215209|-73.5946249
73873|municipio|Villarrica|ChIJf3wcIxvAPo4R3jWl-dTouWM|73|Tolima|3.9368602|-74.6008686
50001|municipio|Villavicencio|ChIJETIout8tPo4RwiB7HQRAflM|50|Meta|4.1491688|-73.6285475
41872|municipio|Villavieja|ChIJW-RBCWaRO44RNgpHSK9CL9c|41|Huila|3.2207713|-75.2188977
25875|municipio|Villeta|ChIJ_yMQtkaaQI4RtOwmBVBPCYI|25|Cundinamarca|5.011706|-74.470362
25878|municipio|Viotá|ChIJB70a5d8WP44RUNHp-vcyQUQ|25|Cundinamarca|4.4373225|-74.52181519999999
15879|municipio|Viracachá|ChIJn6I1DzmGao4RtiE_miDFFsM|15|Boyacá|5.437028|-73.296449
50711|municipio|Vistahermosa|ChIJdWM9z_6ZPY4RzOKE8MrVvDM|50|Meta|3.127883|-73.752512
17877|municipio|Viterbo|ChIJz8AOJTeFR44R0r7lgeIFoRU|17|Caldas|5.0605779|-75.87235600000001
25885|municipio|Yacopí|ChIJn-6AVUD8QI4R2rCBWtzWNiw|25|Cundinamarca|5.4599645|-74.3381776
52885|municipio|Yacuanquer|ChIJkwtJghgyKY4RPFR0CmqotcI|52|Nariño|1.1159647|-77.4006332
41885|municipio|Yaguará|ChIJL4hE8TA9O44RCFvd-1XD2jY|41|Huila|2.664454000000001|-75.518334
05885|municipio|Yalí|ChIJoXriU26PQ44RFYJYf1MasGw|05|Antioquia|6.669041|-74.841515
05887|municipio|Yarumal|ChIJ7eawgO7zRI4RQIfpUpAT-Ck|05|Antioquia|6.961969|-75.4190689
97889|área no municipalizada|Yavaraté|ChIJU0cqLpPLA44RmiTDqf2IRN0|97|Vaupés|0.6150599999999999|-69.2080299
05890|municipio|Yolombó|ChIJTxxdNC10RI4RTWd5Aj1-Vw0|05|Antioquia|6.595905|-75.0146029
05893|municipio|Yondó|ChIJx1e1txH9Qo4Rfvzubk8AwCo|05|Antioquia|6.951009099999999|-74.1709702
85001|municipio|Yopal|ChIJy9etk8oNa44R_gx3JEq830Y|85|Casanare|5.348903|-72.40052299999999
76890|municipio|Yotoco|ChIJE4Y5LerjOY4RIsOIr26JpPo|76|Valle del Cauca|3.860273|-76.38463
76892|municipio|Yumbo|ChIJZ0JCokmqMI4RAKC-ga4cs-8|76|Valle del Cauca|3.545337|-76.495026
13894|municipio|Zambrano|ChIJDSEgNzYwX44R2whv1f4stmI|13|Bolívar|9.760999799999999|-74.89749250000001
68895|municipio|Zapatoca|ChIJxfKksIUyaI4RKjNjEi-WycQ|68|Santander|6.8133712|-73.2728107
47960|municipio|Zapayán|ChIJ83MHO58wX44RGxlZqXQjgSk|47|Magdalena|10.4113014|-74.4056612
05895|municipio|Zaragoza|ChIJU6dPB2RTQ44REHuYcE-FiRo|05|Antioquia|7.486879999999999|-74.8672519
76895|municipio|Zarzal|ChIJUyjKqDFIOI4RZMcGpt7Jy-k|76|Valle del Cauca|4.394865000000001|-76.07285399999999
15897|municipio|Zetaquira|ChIJVSMVds2Tao4Rgj_R6UbTN8w|15|Boyacá|5.282203|-73.1690497
25898|municipio|Zipacón|ChIJ97s5zxh7P44RQFvnRy3oNvY|25|Cundinamarca|4.759634|-74.38004900000001
25899|municipio|Zipaquirá|ChIJOw0AFd9vQI4RTkJhmbsYsjo|25|Cundinamarca|5.025875399999999|-74.001297
47980|municipio|Zona Bananera|ChIJwSgLkwYH9Y4R8JoIU0yuUWk|47|Magdalena|10.7922447|-74.1709702